{
	"status": "success",
	"payload": [
		{
			"id": 1,
			"code": 1001,
			"nameTH": "เขตพระนคร",
			"nameEN": "Khet Phra Nakhon",
			"ProvinceId": 1
		},
		{
			"id": 2,
			"code": 1002,
			"nameTH": "เขตดุสิต",
			"nameEN": "Khet Dusit",
			"ProvinceId": 1
		},
		{
			"id": 3,
			"code": 1003,
			"nameTH": "เขตหนองจอก",
			"nameEN": "Khet Nong Chok",
			"ProvinceId": 1
		},
		{
			"id": 4,
			"code": 1004,
			"nameTH": "เขตบางรัก",
			"nameEN": "Khet Bang Rak",
			"ProvinceId": 1
		},
		{
			"id": 5,
			"code": 1005,
			"nameTH": "เขตบางเขน",
			"nameEN": "Khet Bang Khen",
			"ProvinceId": 1
		},
		{
			"id": 6,
			"code": 1006,
			"nameTH": "เขตบางกะปิ",
			"nameEN": "Khet Bang Kapi",
			"ProvinceId": 1
		},
		{
			"id": 7,
			"code": 1007,
			"nameTH": "เขตปทุมวัน",
			"nameEN": "Khet Pathum Wan",
			"ProvinceId": 1
		},
		{
			"id": 8,
			"code": 1008,
			"nameTH": "เขตป้อมปราบศัตรูพ่าย",
			"nameEN": "Khet Pom Prap Sattru Phai",
			"ProvinceId": 1
		},
		{
			"id": 9,
			"code": 1009,
			"nameTH": "เขตพระโขนง",
			"nameEN": "Khet Phra Khanong",
			"ProvinceId": 1
		},
		{
			"id": 10,
			"code": 1010,
			"nameTH": "เขตมีนบุรี",
			"nameEN": "Khet Min Buri",
			"ProvinceId": 1
		},
		{
			"id": 11,
			"code": 1011,
			"nameTH": "เขตลาดกระบัง",
			"nameEN": "Khet Lat Krabang",
			"ProvinceId": 1
		},
		{
			"id": 12,
			"code": 1012,
			"nameTH": "เขตยานนาวา",
			"nameEN": "Khet Yan Nawa",
			"ProvinceId": 1
		},
		{
			"id": 13,
			"code": 1013,
			"nameTH": "เขตสัมพันธวงศ์",
			"nameEN": "Khet Samphanthawong",
			"ProvinceId": 1
		},
		{
			"id": 14,
			"code": 1014,
			"nameTH": "เขตพญาไท",
			"nameEN": "Khet Phaya Thai",
			"ProvinceId": 1
		},
		{
			"id": 15,
			"code": 1015,
			"nameTH": "เขตธนบุรี",
			"nameEN": "Khet Thon Buri",
			"ProvinceId": 1
		},
		{
			"id": 16,
			"code": 1016,
			"nameTH": "เขตบางกอกใหญ่",
			"nameEN": "Khet Bangkok Yai",
			"ProvinceId": 1
		},
		{
			"id": 17,
			"code": 1017,
			"nameTH": "เขตห้วยขวาง",
			"nameEN": "Khet Huai Khwang",
			"ProvinceId": 1
		},
		{
			"id": 18,
			"code": 1018,
			"nameTH": "เขตคลองสาน",
			"nameEN": "Khet Khlong San",
			"ProvinceId": 1
		},
		{
			"id": 19,
			"code": 1019,
			"nameTH": "เขตตลิ่งชัน",
			"nameEN": "Khet Taling Chan",
			"ProvinceId": 1
		},
		{
			"id": 20,
			"code": 1020,
			"nameTH": "เขตบางกอกน้อย",
			"nameEN": "Khet Bangkok Noi",
			"ProvinceId": 1
		},
		{
			"id": 21,
			"code": 1021,
			"nameTH": "เขตบางขุนเทียน",
			"nameEN": "Khet Bang Khun Thian",
			"ProvinceId": 1
		},
		{
			"id": 22,
			"code": 1022,
			"nameTH": "เขตภาษีเจริญ",
			"nameEN": "Khet Phasi Charoen",
			"ProvinceId": 1
		},
		{
			"id": 23,
			"code": 1023,
			"nameTH": "เขตหนองแขม",
			"nameEN": "Khet Nong Khaem",
			"ProvinceId": 1
		},
		{
			"id": 24,
			"code": 1024,
			"nameTH": "เขตราษฎร์บูรณะ",
			"nameEN": "Khet Rat Burana",
			"ProvinceId": 1
		},
		{
			"id": 25,
			"code": 1025,
			"nameTH": "เขตบางพลัด",
			"nameEN": "Khet Bang Phlat",
			"ProvinceId": 1
		},
		{
			"id": 26,
			"code": 1026,
			"nameTH": "เขตดินแดง",
			"nameEN": "Khet Din Daeng",
			"ProvinceId": 1
		},
		{
			"id": 27,
			"code": 1027,
			"nameTH": "เขตบึงกุ่ม",
			"nameEN": "Khet Bueng Kum",
			"ProvinceId": 1
		},
		{
			"id": 28,
			"code": 1028,
			"nameTH": "เขตสาทร",
			"nameEN": "Khet Sathon",
			"ProvinceId": 1
		},
		{
			"id": 29,
			"code": 1029,
			"nameTH": "เขตบางซื่อ",
			"nameEN": "Khet Bang Sue",
			"ProvinceId": 1
		},
		{
			"id": 30,
			"code": 1030,
			"nameTH": "เขตจตุจักร",
			"nameEN": "Khet Chatuchak",
			"ProvinceId": 1
		},
		{
			"id": 31,
			"code": 1031,
			"nameTH": "เขตบางคอแหลม",
			"nameEN": "Khet Bang Kho Laem",
			"ProvinceId": 1
		},
		{
			"id": 32,
			"code": 1032,
			"nameTH": "เขตประเวศ",
			"nameEN": "Khet Prawet",
			"ProvinceId": 1
		},
		{
			"id": 33,
			"code": 1033,
			"nameTH": "เขตคลองเตย",
			"nameEN": "Khet Khlong Toei",
			"ProvinceId": 1
		},
		{
			"id": 34,
			"code": 1034,
			"nameTH": "เขตสวนหลวง",
			"nameEN": "Khet Suan Luang",
			"ProvinceId": 1
		},
		{
			"id": 35,
			"code": 1035,
			"nameTH": "เขตจอมทอง",
			"nameEN": "Khet Chom Thong",
			"ProvinceId": 1
		},
		{
			"id": 36,
			"code": 1036,
			"nameTH": "เขตดอนเมือง",
			"nameEN": "Khet Don Mueang",
			"ProvinceId": 1
		},
		{
			"id": 37,
			"code": 1037,
			"nameTH": "เขตราชเทวี",
			"nameEN": "Khet Ratchathewi",
			"ProvinceId": 1
		},
		{
			"id": 38,
			"code": 1038,
			"nameTH": "เขตลาดพร้าว",
			"nameEN": "Khet Lat Phrao",
			"ProvinceId": 1
		},
		{
			"id": 39,
			"code": 1039,
			"nameTH": "เขตวัฒนา",
			"nameEN": "Khet Watthana",
			"ProvinceId": 1
		},
		{
			"id": 40,
			"code": 1040,
			"nameTH": "เขตบางแค",
			"nameEN": "Khet Bang Khae",
			"ProvinceId": 1
		},
		{
			"id": 41,
			"code": 1041,
			"nameTH": "เขตหลักสี่",
			"nameEN": "Khet Lak Si",
			"ProvinceId": 1
		},
		{
			"id": 42,
			"code": 1042,
			"nameTH": "เขตสายไหม",
			"nameEN": "Khet Sai Mai",
			"ProvinceId": 1
		},
		{
			"id": 43,
			"code": 1043,
			"nameTH": "เขตคันนายาว",
			"nameEN": "Khet Khan Na Yao",
			"ProvinceId": 1
		},
		{
			"id": 44,
			"code": 1044,
			"nameTH": "เขตสะพานสูง",
			"nameEN": "Khet Saphan Sung",
			"ProvinceId": 1
		},
		{
			"id": 45,
			"code": 1045,
			"nameTH": "เขตวังทองหลาง",
			"nameEN": "Khet Wang Thonglang",
			"ProvinceId": 1
		},
		{
			"id": 46,
			"code": 1046,
			"nameTH": "เขตคลองสามวา",
			"nameEN": "Khet Khlong Sam Wa",
			"ProvinceId": 1
		},
		{
			"id": 47,
			"code": 1047,
			"nameTH": "เขตบางนา",
			"nameEN": "Khet Bang Na",
			"ProvinceId": 1
		},
		{
			"id": 48,
			"code": 1048,
			"nameTH": "เขตทวีวัฒนา",
			"nameEN": "Khet Thawi Watthana",
			"ProvinceId": 1
		},
		{
			"id": 49,
			"code": 1049,
			"nameTH": "เขตทุ่งครุ",
			"nameEN": "Khet Thung Khru",
			"ProvinceId": 1
		},
		{
			"id": 50,
			"code": 1050,
			"nameTH": "เขตบางบอน",
			"nameEN": "Khet Bang Bon",
			"ProvinceId": 1
		},
		{
			"id": 51,
			"code": 1081,
			"nameTH": "*บ้านทะวาย",
			"nameEN": "*Bantawai",
			"ProvinceId": 1
		},
		{
			"id": 52,
			"code": 1101,
			"nameTH": "เมืองสมุทรปราการ",
			"nameEN": "Mueang Samut Prakan",
			"ProvinceId": 2
		},
		{
			"id": 53,
			"code": 1102,
			"nameTH": "บางบ่อ",
			"nameEN": "Bang Bo",
			"ProvinceId": 2
		},
		{
			"id": 54,
			"code": 1103,
			"nameTH": "บางพลี",
			"nameEN": "Bang Phli",
			"ProvinceId": 2
		},
		{
			"id": 55,
			"code": 1104,
			"nameTH": "พระประแดง",
			"nameEN": "Phra Pradaeng",
			"ProvinceId": 2
		},
		{
			"id": 56,
			"code": 1105,
			"nameTH": "พระสมุทรเจดีย์",
			"nameEN": "Phra Samut Chedi",
			"ProvinceId": 2
		},
		{
			"id": 57,
			"code": 1106,
			"nameTH": "บางเสาธง",
			"nameEN": "Bang Sao Thong",
			"ProvinceId": 2
		},
		{
			"id": 58,
			"code": 1201,
			"nameTH": "เมืองนนทบุรี",
			"nameEN": "Mueang Nonthaburi",
			"ProvinceId": 3
		},
		{
			"id": 59,
			"code": 1202,
			"nameTH": "บางกรวย",
			"nameEN": "Bang Kruai",
			"ProvinceId": 3
		},
		{
			"id": 60,
			"code": 1203,
			"nameTH": "บางใหญ่",
			"nameEN": "Bang Yai",
			"ProvinceId": 3
		},
		{
			"id": 61,
			"code": 1204,
			"nameTH": "บางบัวทอง",
			"nameEN": "Bang Bua Thong",
			"ProvinceId": 3
		},
		{
			"id": 62,
			"code": 1205,
			"nameTH": "ไทรน้อย",
			"nameEN": "Sai Noi",
			"ProvinceId": 3
		},
		{
			"id": 63,
			"code": 1206,
			"nameTH": "ปากเกร็ด",
			"nameEN": "Pak Kret",
			"ProvinceId": 3
		},
		{
			"id": 64,
			"code": 1251,
			"nameTH": "เทศบาลนครนนทบุรี (สาขาแขวงท่าทราย)*",
			"nameEN": "Tetsaban Nonthaburi",
			"ProvinceId": 3
		},
		{
			"id": 65,
			"code": 1297,
			"nameTH": "เทศบาลเมืองปากเกร็ด*",
			"nameEN": "Tetsaban Pak Kret",
			"ProvinceId": 3
		},
		{
			"id": 66,
			"code": 1301,
			"nameTH": "เมืองปทุมธานี",
			"nameEN": "Mueang Pathum Thani",
			"ProvinceId": 4
		},
		{
			"id": 67,
			"code": 1302,
			"nameTH": "คลองหลวง",
			"nameEN": "Khlong Luang",
			"ProvinceId": 4
		},
		{
			"id": 68,
			"code": 1303,
			"nameTH": "ธัญบุรี",
			"nameEN": "Thanyaburi",
			"ProvinceId": 4
		},
		{
			"id": 69,
			"code": 1304,
			"nameTH": "หนองเสือ",
			"nameEN": "Nong Suea",
			"ProvinceId": 4
		},
		{
			"id": 70,
			"code": 1305,
			"nameTH": "ลาดหลุมแก้ว",
			"nameEN": "Lat Lum Kaeo",
			"ProvinceId": 4
		},
		{
			"id": 71,
			"code": 1306,
			"nameTH": "ลำลูกกา",
			"nameEN": "Lam Luk Ka",
			"ProvinceId": 4
		},
		{
			"id": 72,
			"code": 1307,
			"nameTH": "สามโคก",
			"nameEN": "Sam Khok",
			"ProvinceId": 4
		},
		{
			"id": 73,
			"code": 1351,
			"nameTH": "ลำลูกกา (สาขาตำบลคูคต)*",
			"nameEN": "Khlong Luang(Kukod)",
			"ProvinceId": 4
		},
		{
			"id": 74,
			"code": 1401,
			"nameTH": "พระนครศรีอยุธยา",
			"nameEN": "Phra Nakhon Si Ayutthaya",
			"ProvinceId": 5
		},
		{
			"id": 75,
			"code": 1402,
			"nameTH": "ท่าเรือ",
			"nameEN": "Tha Ruea",
			"ProvinceId": 5
		},
		{
			"id": 76,
			"code": 1403,
			"nameTH": "นครหลวง",
			"nameEN": "Nakhon Luang",
			"ProvinceId": 5
		},
		{
			"id": 77,
			"code": 1404,
			"nameTH": "บางไทร",
			"nameEN": "Bang Sai",
			"ProvinceId": 5
		},
		{
			"id": 78,
			"code": 1405,
			"nameTH": "บางบาล",
			"nameEN": "Bang Ban",
			"ProvinceId": 5
		},
		{
			"id": 79,
			"code": 1406,
			"nameTH": "บางปะอิน",
			"nameEN": "Bang Pa-in",
			"ProvinceId": 5
		},
		{
			"id": 80,
			"code": 1407,
			"nameTH": "บางปะหัน",
			"nameEN": "Bang Pahan",
			"ProvinceId": 5
		},
		{
			"id": 81,
			"code": 1408,
			"nameTH": "ผักไห่",
			"nameEN": "Phak Hai",
			"ProvinceId": 5
		},
		{
			"id": 82,
			"code": 1409,
			"nameTH": "ภาชี",
			"nameEN": "Phachi",
			"ProvinceId": 5
		},
		{
			"id": 83,
			"code": 1410,
			"nameTH": "ลาดบัวหลวง",
			"nameEN": "Lat Bua Luang",
			"ProvinceId": 5
		},
		{
			"id": 84,
			"code": 1411,
			"nameTH": "วังน้อย",
			"nameEN": "Wang Noi",
			"ProvinceId": 5
		},
		{
			"id": 85,
			"code": 1412,
			"nameTH": "เสนา",
			"nameEN": "Sena",
			"ProvinceId": 5
		},
		{
			"id": 86,
			"code": 1413,
			"nameTH": "บางซ้าย",
			"nameEN": "Bang Sai",
			"ProvinceId": 5
		},
		{
			"id": 87,
			"code": 1414,
			"nameTH": "อุทัย",
			"nameEN": "Uthai",
			"ProvinceId": 5
		},
		{
			"id": 88,
			"code": 1415,
			"nameTH": "มหาราช",
			"nameEN": "Maha Rat",
			"ProvinceId": 5
		},
		{
			"id": 89,
			"code": 1416,
			"nameTH": "บ้านแพรก",
			"nameEN": "Ban Phraek",
			"ProvinceId": 5
		},
		{
			"id": 90,
			"code": 1501,
			"nameTH": "เมืองอ่างทอง",
			"nameEN": "Mueang Ang Thong",
			"ProvinceId": 6
		},
		{
			"id": 91,
			"code": 1502,
			"nameTH": "ไชโย",
			"nameEN": "Chaiyo",
			"ProvinceId": 6
		},
		{
			"id": 92,
			"code": 1503,
			"nameTH": "ป่าโมก",
			"nameEN": "Pa Mok",
			"ProvinceId": 6
		},
		{
			"id": 93,
			"code": 1504,
			"nameTH": "โพธิ์ทอง",
			"nameEN": "Pho Thong",
			"ProvinceId": 6
		},
		{
			"id": 94,
			"code": 1505,
			"nameTH": "แสวงหา",
			"nameEN": "Sawaeng Ha",
			"ProvinceId": 6
		},
		{
			"id": 95,
			"code": 1506,
			"nameTH": "วิเศษชัยชาญ",
			"nameEN": "Wiset Chai Chan",
			"ProvinceId": 6
		},
		{
			"id": 96,
			"code": 1507,
			"nameTH": "สามโก้",
			"nameEN": "Samko",
			"ProvinceId": 6
		},
		{
			"id": 97,
			"code": 1601,
			"nameTH": "เมืองลพบุรี",
			"nameEN": "Mueang Lop Buri",
			"ProvinceId": 7
		},
		{
			"id": 98,
			"code": 1602,
			"nameTH": "พัฒนานิคม",
			"nameEN": "Phatthana Nikhom",
			"ProvinceId": 7
		},
		{
			"id": 99,
			"code": 1603,
			"nameTH": "โคกสำโรง",
			"nameEN": "Khok Samrong",
			"ProvinceId": 7
		},
		{
			"id": 100,
			"code": 1604,
			"nameTH": "ชัยบาดาล",
			"nameEN": "Chai Badan",
			"ProvinceId": 7
		},
		{
			"id": 101,
			"code": 1605,
			"nameTH": "ท่าวุ้ง",
			"nameEN": "Tha Wung",
			"ProvinceId": 7
		},
		{
			"id": 102,
			"code": 1606,
			"nameTH": "บ้านหมี่",
			"nameEN": "Ban Mi",
			"ProvinceId": 7
		},
		{
			"id": 103,
			"code": 1607,
			"nameTH": "ท่าหลวง",
			"nameEN": "Tha Luang",
			"ProvinceId": 7
		},
		{
			"id": 104,
			"code": 1608,
			"nameTH": "สระโบสถ์",
			"nameEN": "Sa Bot",
			"ProvinceId": 7
		},
		{
			"id": 105,
			"code": 1609,
			"nameTH": "โคกเจริญ",
			"nameEN": "Khok Charoen",
			"ProvinceId": 7
		},
		{
			"id": 106,
			"code": 1610,
			"nameTH": "ลำสนธิ",
			"nameEN": "Lam Sonthi",
			"ProvinceId": 7
		},
		{
			"id": 107,
			"code": 1611,
			"nameTH": "หนองม่วง",
			"nameEN": "Nong Muang",
			"ProvinceId": 7
		},
		{
			"id": 108,
			"code": 1681,
			"nameTH": "*อ.บ้านเช่า  จ.ลพบุรี",
			"nameEN": "*Amphoe Ban Chao",
			"ProvinceId": 7
		},
		{
			"id": 109,
			"code": 1701,
			"nameTH": "เมืองสิงห์บุรี",
			"nameEN": "Mueang Sing Buri",
			"ProvinceId": 8
		},
		{
			"id": 110,
			"code": 1702,
			"nameTH": "บางระจัน",
			"nameEN": "Bang Rachan",
			"ProvinceId": 8
		},
		{
			"id": 111,
			"code": 1703,
			"nameTH": "ค่ายบางระจัน",
			"nameEN": "Khai Bang Rachan",
			"ProvinceId": 8
		},
		{
			"id": 112,
			"code": 1704,
			"nameTH": "พรหมบุรี",
			"nameEN": "Phrom Buri",
			"ProvinceId": 8
		},
		{
			"id": 113,
			"code": 1705,
			"nameTH": "ท่าช้าง",
			"nameEN": "Tha Chang",
			"ProvinceId": 8
		},
		{
			"id": 114,
			"code": 1706,
			"nameTH": "อินทร์บุรี",
			"nameEN": "In Buri",
			"ProvinceId": 8
		},
		{
			"id": 115,
			"code": 1801,
			"nameTH": "เมืองชัยนาท",
			"nameEN": "Mueang Chai Nat",
			"ProvinceId": 9
		},
		{
			"id": 116,
			"code": 1802,
			"nameTH": "มโนรมย์",
			"nameEN": "Manorom",
			"ProvinceId": 9
		},
		{
			"id": 117,
			"code": 1803,
			"nameTH": "วัดสิงห์",
			"nameEN": "Wat Sing",
			"ProvinceId": 9
		},
		{
			"id": 118,
			"code": 1804,
			"nameTH": "สรรพยา",
			"nameEN": "Sapphaya",
			"ProvinceId": 9
		},
		{
			"id": 119,
			"code": 1805,
			"nameTH": "สรรคบุรี",
			"nameEN": "Sankhaburi",
			"ProvinceId": 9
		},
		{
			"id": 120,
			"code": 1806,
			"nameTH": "หันคา",
			"nameEN": "Hankha",
			"ProvinceId": 9
		},
		{
			"id": 121,
			"code": 1807,
			"nameTH": "หนองมะโมง",
			"nameEN": "Nong Mamong",
			"ProvinceId": 9
		},
		{
			"id": 122,
			"code": 1808,
			"nameTH": "เนินขาม",
			"nameEN": "Noen Kham",
			"ProvinceId": 9
		},
		{
			"id": 123,
			"code": 1901,
			"nameTH": "เมืองสระบุรี",
			"nameEN": "Mueang Saraburi",
			"ProvinceId": 10
		},
		{
			"id": 124,
			"code": 1902,
			"nameTH": "แก่งคอย",
			"nameEN": "Kaeng Khoi",
			"ProvinceId": 10
		},
		{
			"id": 125,
			"code": 1903,
			"nameTH": "หนองแค",
			"nameEN": "Nong Khae",
			"ProvinceId": 10
		},
		{
			"id": 126,
			"code": 1904,
			"nameTH": "วิหารแดง",
			"nameEN": "Wihan Daeng",
			"ProvinceId": 10
		},
		{
			"id": 127,
			"code": 1905,
			"nameTH": "หนองแซง",
			"nameEN": "Nong Saeng",
			"ProvinceId": 10
		},
		{
			"id": 128,
			"code": 1906,
			"nameTH": "บ้านหมอ",
			"nameEN": "Ban Mo",
			"ProvinceId": 10
		},
		{
			"id": 129,
			"code": 1907,
			"nameTH": "ดอนพุด",
			"nameEN": "Don Phut",
			"ProvinceId": 10
		},
		{
			"id": 130,
			"code": 1908,
			"nameTH": "หนองโดน",
			"nameEN": "Nong Don",
			"ProvinceId": 10
		},
		{
			"id": 131,
			"code": 1909,
			"nameTH": "พระพุทธบาท",
			"nameEN": "Phra Phutthabat",
			"ProvinceId": 10
		},
		{
			"id": 132,
			"code": 1910,
			"nameTH": "เสาไห้",
			"nameEN": "Sao Hai",
			"ProvinceId": 10
		},
		{
			"id": 133,
			"code": 1911,
			"nameTH": "มวกเหล็ก",
			"nameEN": "Muak Lek",
			"ProvinceId": 10
		},
		{
			"id": 134,
			"code": 1912,
			"nameTH": "วังม่วง",
			"nameEN": "Wang Muang",
			"ProvinceId": 10
		},
		{
			"id": 135,
			"code": 1913,
			"nameTH": "เฉลิมพระเกียรติ",
			"nameEN": "Chaloem Phra Kiat",
			"ProvinceId": 10
		},
		{
			"id": 136,
			"code": 2001,
			"nameTH": "เมืองชลบุรี",
			"nameEN": "Mueang Chon Buri",
			"ProvinceId": 11
		},
		{
			"id": 137,
			"code": 2002,
			"nameTH": "บ้านบึง",
			"nameEN": "Ban Bueng",
			"ProvinceId": 11
		},
		{
			"id": 138,
			"code": 2003,
			"nameTH": "หนองใหญ่",
			"nameEN": "Nong Yai",
			"ProvinceId": 11
		},
		{
			"id": 139,
			"code": 2004,
			"nameTH": "บางละมุง",
			"nameEN": "Bang Lamung",
			"ProvinceId": 11
		},
		{
			"id": 140,
			"code": 2005,
			"nameTH": "พานทอง",
			"nameEN": "Phan Thong",
			"ProvinceId": 11
		},
		{
			"id": 141,
			"code": 2006,
			"nameTH": "พนัสนิคม",
			"nameEN": "Phanat Nikhom",
			"ProvinceId": 11
		},
		{
			"id": 142,
			"code": 2007,
			"nameTH": "ศรีราชา",
			"nameEN": "Si Racha",
			"ProvinceId": 11
		},
		{
			"id": 143,
			"code": 2008,
			"nameTH": "เกาะสีชัง",
			"nameEN": "Ko Sichang",
			"ProvinceId": 11
		},
		{
			"id": 144,
			"code": 2009,
			"nameTH": "สัตหีบ",
			"nameEN": "Sattahip",
			"ProvinceId": 11
		},
		{
			"id": 145,
			"code": 2010,
			"nameTH": "บ่อทอง",
			"nameEN": "Bo Thong",
			"ProvinceId": 11
		},
		{
			"id": 146,
			"code": 2011,
			"nameTH": "เกาะจันทร์",
			"nameEN": "Ko Chan",
			"ProvinceId": 11
		},
		{
			"id": 147,
			"code": 2051,
			"nameTH": "สัตหีบ (สาขาตำบลบางเสร่)*",
			"nameEN": "Sattahip(Bang Sre)*",
			"ProvinceId": 11
		},
		{
			"id": 148,
			"code": 2072,
			"nameTH": "ท้องถิ่นเทศบาลเมืองหนองปรือ*",
			"nameEN": "Tong Tin Tetsaban Mueang Nong Prue*",
			"ProvinceId": 11
		},
		{
			"id": 149,
			"code": 2093,
			"nameTH": "เทศบาลตำบลแหลมฉบัง*",
			"nameEN": "Tetsaban Tambon Lamsabang*",
			"ProvinceId": 11
		},
		{
			"id": 150,
			"code": 2099,
			"nameTH": "เทศบาลเมืองชลบุรี*",
			"nameEN": "Mueang Chon Buri",
			"ProvinceId": 11
		},
		{
			"id": 151,
			"code": 2101,
			"nameTH": "เมืองระยอง",
			"nameEN": "Mueang Rayong",
			"ProvinceId": 12
		},
		{
			"id": 152,
			"code": 2102,
			"nameTH": "บ้านฉาง",
			"nameEN": "Ban Chang",
			"ProvinceId": 12
		},
		{
			"id": 153,
			"code": 2103,
			"nameTH": "แกลง",
			"nameEN": "Klaeng",
			"ProvinceId": 12
		},
		{
			"id": 154,
			"code": 2104,
			"nameTH": "วังจันทร์",
			"nameEN": "Wang Chan",
			"ProvinceId": 12
		},
		{
			"id": 155,
			"code": 2105,
			"nameTH": "บ้านค่าย",
			"nameEN": "Ban Khai",
			"ProvinceId": 12
		},
		{
			"id": 156,
			"code": 2106,
			"nameTH": "ปลวกแดง",
			"nameEN": "Pluak Daeng",
			"ProvinceId": 12
		},
		{
			"id": 157,
			"code": 2107,
			"nameTH": "เขาชะเมา",
			"nameEN": "Khao Chamao",
			"ProvinceId": 12
		},
		{
			"id": 158,
			"code": 2108,
			"nameTH": "นิคมพัฒนา",
			"nameEN": "Nikhom Phatthana",
			"ProvinceId": 12
		},
		{
			"id": 159,
			"code": 2151,
			"nameTH": "สาขาตำบลมาบข่า*",
			"nameEN": "Saka Tambon Mabka",
			"ProvinceId": 12
		},
		{
			"id": 160,
			"code": 2201,
			"nameTH": "เมืองจันทบุรี",
			"nameEN": "Mueang Chanthaburi",
			"ProvinceId": 13
		},
		{
			"id": 161,
			"code": 2202,
			"nameTH": "ขลุง",
			"nameEN": "Khlung",
			"ProvinceId": 13
		},
		{
			"id": 162,
			"code": 2203,
			"nameTH": "ท่าใหม่",
			"nameEN": "Tha Mai",
			"ProvinceId": 13
		},
		{
			"id": 163,
			"code": 2204,
			"nameTH": "โป่งน้ำร้อน",
			"nameEN": "Pong Nam Ron",
			"ProvinceId": 13
		},
		{
			"id": 164,
			"code": 2205,
			"nameTH": "มะขาม",
			"nameEN": "Makham",
			"ProvinceId": 13
		},
		{
			"id": 165,
			"code": 2206,
			"nameTH": "แหลมสิงห์",
			"nameEN": "Laem Sing",
			"ProvinceId": 13
		},
		{
			"id": 166,
			"code": 2207,
			"nameTH": "สอยดาว",
			"nameEN": "Soi Dao",
			"ProvinceId": 13
		},
		{
			"id": 167,
			"code": 2208,
			"nameTH": "แก่งหางแมว",
			"nameEN": "Kaeng Hang Maeo",
			"ProvinceId": 13
		},
		{
			"id": 168,
			"code": 2209,
			"nameTH": "นายายอาม",
			"nameEN": "Na Yai Am",
			"ProvinceId": 13
		},
		{
			"id": 169,
			"code": 2210,
			"nameTH": "เขาคิชฌกูฏ",
			"nameEN": "Khoa Khitchakut",
			"ProvinceId": 13
		},
		{
			"id": 170,
			"code": 2281,
			"nameTH": "*กิ่ง อ.กำพุธ  จ.จันทบุรี",
			"nameEN": "*King Amphoe Kampud",
			"ProvinceId": 13
		},
		{
			"id": 171,
			"code": 2301,
			"nameTH": "เมืองตราด",
			"nameEN": "Mueang Trat",
			"ProvinceId": 14
		},
		{
			"id": 172,
			"code": 2302,
			"nameTH": "คลองใหญ่",
			"nameEN": "Khlong Yai",
			"ProvinceId": 14
		},
		{
			"id": 173,
			"code": 2303,
			"nameTH": "เขาสมิง",
			"nameEN": "Khao Saming",
			"ProvinceId": 14
		},
		{
			"id": 174,
			"code": 2304,
			"nameTH": "บ่อไร่",
			"nameEN": "Bo Rai",
			"ProvinceId": 14
		},
		{
			"id": 175,
			"code": 2305,
			"nameTH": "แหลมงอบ",
			"nameEN": "Laem Ngop",
			"ProvinceId": 14
		},
		{
			"id": 176,
			"code": 2306,
			"nameTH": "เกาะกูด",
			"nameEN": "Ko Kut",
			"ProvinceId": 14
		},
		{
			"id": 177,
			"code": 2307,
			"nameTH": "เกาะช้าง",
			"nameEN": "Ko Chang",
			"ProvinceId": 14
		},
		{
			"id": 178,
			"code": 2401,
			"nameTH": "เมืองฉะเชิงเทรา",
			"nameEN": "Mueang Chachoengsao",
			"ProvinceId": 15
		},
		{
			"id": 179,
			"code": 2402,
			"nameTH": "บางคล้า",
			"nameEN": "Bang Khla",
			"ProvinceId": 15
		},
		{
			"id": 180,
			"code": 2403,
			"nameTH": "บางน้ำเปรี้ยว",
			"nameEN": "Bang Nam Priao",
			"ProvinceId": 15
		},
		{
			"id": 181,
			"code": 2404,
			"nameTH": "บางปะกง",
			"nameEN": "Bang Pakong",
			"ProvinceId": 15
		},
		{
			"id": 182,
			"code": 2405,
			"nameTH": "บ้านโพธิ์",
			"nameEN": "Ban Pho",
			"ProvinceId": 15
		},
		{
			"id": 183,
			"code": 2406,
			"nameTH": "พนมสารคาม",
			"nameEN": "Phanom Sarakham",
			"ProvinceId": 15
		},
		{
			"id": 184,
			"code": 2407,
			"nameTH": "ราชสาส์น",
			"nameEN": "Ratchasan",
			"ProvinceId": 15
		},
		{
			"id": 185,
			"code": 2408,
			"nameTH": "สนามชัยเขต",
			"nameEN": "Sanam Chai Khet",
			"ProvinceId": 15
		},
		{
			"id": 186,
			"code": 2409,
			"nameTH": "แปลงยาว",
			"nameEN": "Plaeng Yao",
			"ProvinceId": 15
		},
		{
			"id": 187,
			"code": 2410,
			"nameTH": "ท่าตะเกียบ",
			"nameEN": "Tha Takiap",
			"ProvinceId": 15
		},
		{
			"id": 188,
			"code": 2411,
			"nameTH": "คลองเขื่อน",
			"nameEN": "Khlong Khuean",
			"ProvinceId": 15
		},
		{
			"id": 189,
			"code": 2501,
			"nameTH": "เมืองปราจีนบุรี",
			"nameEN": "Mueang Prachin Buri",
			"ProvinceId": 16
		},
		{
			"id": 190,
			"code": 2502,
			"nameTH": "กบินทร์บุรี",
			"nameEN": "Kabin Buri",
			"ProvinceId": 16
		},
		{
			"id": 191,
			"code": 2503,
			"nameTH": "นาดี",
			"nameEN": "Na Di",
			"ProvinceId": 16
		},
		{
			"id": 192,
			"code": 2504,
			"nameTH": "*สระแก้ว",
			"nameEN": "Sa Kaeo",
			"ProvinceId": 16
		},
		{
			"id": 193,
			"code": 2505,
			"nameTH": "*วังน้ำเย็น",
			"nameEN": "Wang Nam Yen",
			"ProvinceId": 16
		},
		{
			"id": 194,
			"code": 2506,
			"nameTH": "บ้านสร้าง",
			"nameEN": "Ban Sang",
			"ProvinceId": 16
		},
		{
			"id": 195,
			"code": 2507,
			"nameTH": "ประจันตคาม",
			"nameEN": "Prachantakham",
			"ProvinceId": 16
		},
		{
			"id": 196,
			"code": 2508,
			"nameTH": "ศรีมหาโพธิ",
			"nameEN": "Si Maha Phot",
			"ProvinceId": 16
		},
		{
			"id": 197,
			"code": 2509,
			"nameTH": "ศรีมโหสถ",
			"nameEN": "Si Mahosot",
			"ProvinceId": 16
		},
		{
			"id": 198,
			"code": 2510,
			"nameTH": "*อรัญประเทศ",
			"nameEN": "Aranyaprathet",
			"ProvinceId": 16
		},
		{
			"id": 199,
			"code": 2511,
			"nameTH": "*ตาพระยา",
			"nameEN": "Ta Phraya",
			"ProvinceId": 16
		},
		{
			"id": 200,
			"code": 2512,
			"nameTH": "*วัฒนานคร",
			"nameEN": "Watthana Nakhon",
			"ProvinceId": 16
		},
		{
			"id": 201,
			"code": 2513,
			"nameTH": "*คลองหาด",
			"nameEN": "Khlong Hat",
			"ProvinceId": 16
		},
		{
			"id": 202,
			"code": 2601,
			"nameTH": "เมืองนครนายก",
			"nameEN": "Mueang Nakhon Nayok",
			"ProvinceId": 17
		},
		{
			"id": 203,
			"code": 2602,
			"nameTH": "ปากพลี",
			"nameEN": "Pak Phli",
			"ProvinceId": 17
		},
		{
			"id": 204,
			"code": 2603,
			"nameTH": "บ้านนา",
			"nameEN": "Ban Na",
			"ProvinceId": 17
		},
		{
			"id": 205,
			"code": 2604,
			"nameTH": "องครักษ์",
			"nameEN": "Ongkharak",
			"ProvinceId": 17
		},
		{
			"id": 206,
			"code": 2701,
			"nameTH": "เมืองสระแก้ว",
			"nameEN": "Mueang Sa Kaeo",
			"ProvinceId": 18
		},
		{
			"id": 207,
			"code": 2702,
			"nameTH": "คลองหาด",
			"nameEN": "Khlong Hat",
			"ProvinceId": 18
		},
		{
			"id": 208,
			"code": 2703,
			"nameTH": "ตาพระยา",
			"nameEN": "Ta Phraya",
			"ProvinceId": 18
		},
		{
			"id": 209,
			"code": 2704,
			"nameTH": "วังน้ำเย็น",
			"nameEN": "Wang Nam Yen",
			"ProvinceId": 18
		},
		{
			"id": 210,
			"code": 2705,
			"nameTH": "วัฒนานคร",
			"nameEN": "Watthana Nakhon",
			"ProvinceId": 18
		},
		{
			"id": 211,
			"code": 2706,
			"nameTH": "อรัญประเทศ",
			"nameEN": "Aranyaprathet",
			"ProvinceId": 18
		},
		{
			"id": 212,
			"code": 2707,
			"nameTH": "เขาฉกรรจ์",
			"nameEN": "Khao Chakan",
			"ProvinceId": 18
		},
		{
			"id": 213,
			"code": 2708,
			"nameTH": "โคกสูง",
			"nameEN": "Khok Sung",
			"ProvinceId": 18
		},
		{
			"id": 214,
			"code": 2709,
			"nameTH": "วังสมบูรณ์",
			"nameEN": "Wang Sombun",
			"ProvinceId": 18
		},
		{
			"id": 215,
			"code": 3001,
			"nameTH": "เมืองนครราชสีมา",
			"nameEN": "Mueang Nakhon Ratchasima",
			"ProvinceId": 19
		},
		{
			"id": 216,
			"code": 3002,
			"nameTH": "ครบุรี",
			"nameEN": "Khon Buri",
			"ProvinceId": 19
		},
		{
			"id": 217,
			"code": 3003,
			"nameTH": "เสิงสาง",
			"nameEN": "Soeng Sang",
			"ProvinceId": 19
		},
		{
			"id": 218,
			"code": 3004,
			"nameTH": "คง",
			"nameEN": "Khong",
			"ProvinceId": 19
		},
		{
			"id": 219,
			"code": 3005,
			"nameTH": "บ้านเหลื่อม",
			"nameEN": "Ban Lueam",
			"ProvinceId": 19
		},
		{
			"id": 220,
			"code": 3006,
			"nameTH": "จักราช",
			"nameEN": "Chakkarat",
			"ProvinceId": 19
		},
		{
			"id": 221,
			"code": 3007,
			"nameTH": "โชคชัย",
			"nameEN": "Chok Chai",
			"ProvinceId": 19
		},
		{
			"id": 222,
			"code": 3008,
			"nameTH": "ด่านขุนทด",
			"nameEN": "Dan Khun Thot",
			"ProvinceId": 19
		},
		{
			"id": 223,
			"code": 3009,
			"nameTH": "โนนไทย",
			"nameEN": "Non Thai",
			"ProvinceId": 19
		},
		{
			"id": 224,
			"code": 3010,
			"nameTH": "โนนสูง",
			"nameEN": "Non Sung",
			"ProvinceId": 19
		},
		{
			"id": 225,
			"code": 3011,
			"nameTH": "ขามสะแกแสง",
			"nameEN": "Kham Sakaesaeng",
			"ProvinceId": 19
		},
		{
			"id": 226,
			"code": 3012,
			"nameTH": "บัวใหญ่",
			"nameEN": "Bua Yai",
			"ProvinceId": 19
		},
		{
			"id": 227,
			"code": 3013,
			"nameTH": "ประทาย",
			"nameEN": "Prathai",
			"ProvinceId": 19
		},
		{
			"id": 228,
			"code": 3014,
			"nameTH": "ปักธงชัย",
			"nameEN": "Pak Thong Chai",
			"ProvinceId": 19
		},
		{
			"id": 229,
			"code": 3015,
			"nameTH": "พิมาย",
			"nameEN": "Phimai",
			"ProvinceId": 19
		},
		{
			"id": 230,
			"code": 3016,
			"nameTH": "ห้วยแถลง",
			"nameEN": "Huai Thalaeng",
			"ProvinceId": 19
		},
		{
			"id": 231,
			"code": 3017,
			"nameTH": "ชุมพวง",
			"nameEN": "Chum Phuang",
			"ProvinceId": 19
		},
		{
			"id": 232,
			"code": 3018,
			"nameTH": "สูงเนิน",
			"nameEN": "Sung Noen",
			"ProvinceId": 19
		},
		{
			"id": 233,
			"code": 3019,
			"nameTH": "ขามทะเลสอ",
			"nameEN": "Kham Thale So",
			"ProvinceId": 19
		},
		{
			"id": 234,
			"code": 3020,
			"nameTH": "สีคิ้ว",
			"nameEN": "Sikhio",
			"ProvinceId": 19
		},
		{
			"id": 235,
			"code": 3021,
			"nameTH": "ปากช่อง",
			"nameEN": "Pak Chong",
			"ProvinceId": 19
		},
		{
			"id": 236,
			"code": 3022,
			"nameTH": "หนองบุญมาก",
			"nameEN": "Nong Bunnak",
			"ProvinceId": 19
		},
		{
			"id": 237,
			"code": 3023,
			"nameTH": "แก้งสนามนาง",
			"nameEN": "Kaeng Sanam Nang",
			"ProvinceId": 19
		},
		{
			"id": 238,
			"code": 3024,
			"nameTH": "โนนแดง",
			"nameEN": "Non Daeng",
			"ProvinceId": 19
		},
		{
			"id": 239,
			"code": 3025,
			"nameTH": "วังน้ำเขียว",
			"nameEN": "Wang Nam Khiao",
			"ProvinceId": 19
		},
		{
			"id": 240,
			"code": 3026,
			"nameTH": "เทพารักษ์",
			"nameEN": "Thepharak",
			"ProvinceId": 19
		},
		{
			"id": 241,
			"code": 3027,
			"nameTH": "เมืองยาง",
			"nameEN": "Mueang Yang",
			"ProvinceId": 19
		},
		{
			"id": 242,
			"code": 3028,
			"nameTH": "พระทองคำ",
			"nameEN": "Phra Thong Kham",
			"ProvinceId": 19
		},
		{
			"id": 243,
			"code": 3029,
			"nameTH": "ลำทะเมนชัย",
			"nameEN": "Lam Thamenchai",
			"ProvinceId": 19
		},
		{
			"id": 244,
			"code": 3030,
			"nameTH": "บัวลาย",
			"nameEN": "Bua Lai",
			"ProvinceId": 19
		},
		{
			"id": 245,
			"code": 3031,
			"nameTH": "สีดา",
			"nameEN": "Sida",
			"ProvinceId": 19
		},
		{
			"id": 246,
			"code": 3032,
			"nameTH": "เฉลิมพระเกียรติ",
			"nameEN": "Chaloem Phra Kiat",
			"ProvinceId": 19
		},
		{
			"id": 247,
			"code": 3049,
			"nameTH": "ท้องถิ่นเทศบาลตำบลโพธิ์กลาง*",
			"nameEN": "Pho Krang",
			"ProvinceId": 19
		},
		{
			"id": 248,
			"code": 3051,
			"nameTH": "สาขาตำบลมะค่า-พลสงคราม*",
			"nameEN": "Ma Ka-Pon Songkram*",
			"ProvinceId": 19
		},
		{
			"id": 249,
			"code": 3081,
			"nameTH": "*โนนลาว",
			"nameEN": "*Non Lao",
			"ProvinceId": 19
		},
		{
			"id": 250,
			"code": 3101,
			"nameTH": "เมืองบุรีรัมย์",
			"nameEN": "Mueang Buri Ram",
			"ProvinceId": 20
		},
		{
			"id": 251,
			"code": 3102,
			"nameTH": "คูเมือง",
			"nameEN": "Khu Mueang",
			"ProvinceId": 20
		},
		{
			"id": 252,
			"code": 3103,
			"nameTH": "กระสัง",
			"nameEN": "Krasang",
			"ProvinceId": 20
		},
		{
			"id": 253,
			"code": 3104,
			"nameTH": "นางรอง",
			"nameEN": "Nang Rong",
			"ProvinceId": 20
		},
		{
			"id": 254,
			"code": 3105,
			"nameTH": "หนองกี่",
			"nameEN": "Nong Ki",
			"ProvinceId": 20
		},
		{
			"id": 255,
			"code": 3106,
			"nameTH": "ละหานทราย",
			"nameEN": "Lahan Sai",
			"ProvinceId": 20
		},
		{
			"id": 256,
			"code": 3107,
			"nameTH": "ประโคนชัย",
			"nameEN": "Prakhon Chai",
			"ProvinceId": 20
		},
		{
			"id": 257,
			"code": 3108,
			"nameTH": "บ้านกรวด",
			"nameEN": "Ban Kruat",
			"ProvinceId": 20
		},
		{
			"id": 258,
			"code": 3109,
			"nameTH": "พุทไธสง",
			"nameEN": "Phutthaisong",
			"ProvinceId": 20
		},
		{
			"id": 259,
			"code": 3110,
			"nameTH": "ลำปลายมาศ",
			"nameEN": "Lam Plai Mat",
			"ProvinceId": 20
		},
		{
			"id": 260,
			"code": 3111,
			"nameTH": "สตึก",
			"nameEN": "Satuek",
			"ProvinceId": 20
		},
		{
			"id": 261,
			"code": 3112,
			"nameTH": "ปะคำ",
			"nameEN": "Pakham",
			"ProvinceId": 20
		},
		{
			"id": 262,
			"code": 3113,
			"nameTH": "นาโพธิ์",
			"nameEN": "Na Pho",
			"ProvinceId": 20
		},
		{
			"id": 263,
			"code": 3114,
			"nameTH": "หนองหงส์",
			"nameEN": "Nong Hong",
			"ProvinceId": 20
		},
		{
			"id": 264,
			"code": 3115,
			"nameTH": "พลับพลาชัย",
			"nameEN": "Phlapphla Chai",
			"ProvinceId": 20
		},
		{
			"id": 265,
			"code": 3116,
			"nameTH": "ห้วยราช",
			"nameEN": "Huai Rat",
			"ProvinceId": 20
		},
		{
			"id": 266,
			"code": 3117,
			"nameTH": "โนนสุวรรณ",
			"nameEN": "Non Suwan",
			"ProvinceId": 20
		},
		{
			"id": 267,
			"code": 3118,
			"nameTH": "ชำนิ",
			"nameEN": "Chamni",
			"ProvinceId": 20
		},
		{
			"id": 268,
			"code": 3119,
			"nameTH": "บ้านใหม่ไชยพจน์",
			"nameEN": "Ban Mai Chaiyaphot",
			"ProvinceId": 20
		},
		{
			"id": 269,
			"code": 3120,
			"nameTH": "โนนดินแดง",
			"nameEN": "Din Daeng",
			"ProvinceId": 20
		},
		{
			"id": 270,
			"code": 3121,
			"nameTH": "บ้านด่าน",
			"nameEN": "Ban Dan",
			"ProvinceId": 20
		},
		{
			"id": 271,
			"code": 3122,
			"nameTH": "แคนดง",
			"nameEN": "Khaen Dong",
			"ProvinceId": 20
		},
		{
			"id": 272,
			"code": 3123,
			"nameTH": "เฉลิมพระเกียรติ",
			"nameEN": "Chaloem Phra Kiat",
			"ProvinceId": 20
		},
		{
			"id": 273,
			"code": 3201,
			"nameTH": "เมืองสุรินทร์",
			"nameEN": "Mueang Surin",
			"ProvinceId": 21
		},
		{
			"id": 274,
			"code": 3202,
			"nameTH": "ชุมพลบุรี",
			"nameEN": "Chumphon Buri",
			"ProvinceId": 21
		},
		{
			"id": 275,
			"code": 3203,
			"nameTH": "ท่าตูม",
			"nameEN": "Tha Tum",
			"ProvinceId": 21
		},
		{
			"id": 276,
			"code": 3204,
			"nameTH": "จอมพระ",
			"nameEN": "Chom Phra",
			"ProvinceId": 21
		},
		{
			"id": 277,
			"code": 3205,
			"nameTH": "ปราสาท",
			"nameEN": "Prasat",
			"ProvinceId": 21
		},
		{
			"id": 278,
			"code": 3206,
			"nameTH": "กาบเชิง",
			"nameEN": "Kap Choeng",
			"ProvinceId": 21
		},
		{
			"id": 279,
			"code": 3207,
			"nameTH": "รัตนบุรี",
			"nameEN": "Rattanaburi",
			"ProvinceId": 21
		},
		{
			"id": 280,
			"code": 3208,
			"nameTH": "สนม",
			"nameEN": "Sanom",
			"ProvinceId": 21
		},
		{
			"id": 281,
			"code": 3209,
			"nameTH": "ศีขรภูมิ",
			"nameEN": "Sikhoraphum",
			"ProvinceId": 21
		},
		{
			"id": 282,
			"code": 3210,
			"nameTH": "สังขะ",
			"nameEN": "Sangkha",
			"ProvinceId": 21
		},
		{
			"id": 283,
			"code": 3211,
			"nameTH": "ลำดวน",
			"nameEN": "Lamduan",
			"ProvinceId": 21
		},
		{
			"id": 284,
			"code": 3212,
			"nameTH": "สำโรงทาบ",
			"nameEN": "Samrong Thap",
			"ProvinceId": 21
		},
		{
			"id": 285,
			"code": 3213,
			"nameTH": "บัวเชด",
			"nameEN": "Buachet",
			"ProvinceId": 21
		},
		{
			"id": 286,
			"code": 3214,
			"nameTH": "พนมดงรัก",
			"nameEN": "Phanom Dong Rak",
			"ProvinceId": 21
		},
		{
			"id": 287,
			"code": 3215,
			"nameTH": "ศรีณรงค์",
			"nameEN": "Si Narong",
			"ProvinceId": 21
		},
		{
			"id": 288,
			"code": 3216,
			"nameTH": "เขวาสินรินทร์",
			"nameEN": "Khwao Sinarin",
			"ProvinceId": 21
		},
		{
			"id": 289,
			"code": 3217,
			"nameTH": "โนนนารายณ์",
			"nameEN": "Non Narai",
			"ProvinceId": 21
		},
		{
			"id": 290,
			"code": 3301,
			"nameTH": "เมืองศรีสะเกษ",
			"nameEN": "Mueang Si Sa Ket",
			"ProvinceId": 22
		},
		{
			"id": 291,
			"code": 3302,
			"nameTH": "ยางชุมน้อย",
			"nameEN": "Yang Chum Noi",
			"ProvinceId": 22
		},
		{
			"id": 292,
			"code": 3303,
			"nameTH": "กันทรารมย์",
			"nameEN": "Kanthararom",
			"ProvinceId": 22
		},
		{
			"id": 293,
			"code": 3304,
			"nameTH": "กันทรลักษ์",
			"nameEN": "Kantharalak",
			"ProvinceId": 22
		},
		{
			"id": 294,
			"code": 3305,
			"nameTH": "ขุขันธ์",
			"nameEN": "Khukhan",
			"ProvinceId": 22
		},
		{
			"id": 295,
			"code": 3306,
			"nameTH": "ไพรบึง",
			"nameEN": "Phrai Bueng",
			"ProvinceId": 22
		},
		{
			"id": 296,
			"code": 3307,
			"nameTH": "ปรางค์กู่",
			"nameEN": "Prang Ku",
			"ProvinceId": 22
		},
		{
			"id": 297,
			"code": 3308,
			"nameTH": "ขุนหาญ",
			"nameEN": "Khun Han",
			"ProvinceId": 22
		},
		{
			"id": 298,
			"code": 3309,
			"nameTH": "ราษีไศล",
			"nameEN": "Rasi Salai",
			"ProvinceId": 22
		},
		{
			"id": 299,
			"code": 3310,
			"nameTH": "อุทุมพรพิสัย",
			"nameEN": "Uthumphon Phisai",
			"ProvinceId": 22
		},
		{
			"id": 300,
			"code": 3311,
			"nameTH": "บึงบูรพ์",
			"nameEN": "Bueng Bun",
			"ProvinceId": 22
		},
		{
			"id": 301,
			"code": 3312,
			"nameTH": "ห้วยทับทัน",
			"nameEN": "Huai Thap Than",
			"ProvinceId": 22
		},
		{
			"id": 302,
			"code": 3313,
			"nameTH": "โนนคูณ",
			"nameEN": "Non Khun",
			"ProvinceId": 22
		},
		{
			"id": 303,
			"code": 3314,
			"nameTH": "ศรีรัตนะ",
			"nameEN": "Si Rattana",
			"ProvinceId": 22
		},
		{
			"id": 304,
			"code": 3315,
			"nameTH": "น้ำเกลี้ยง",
			"nameEN": "Si Rattana",
			"ProvinceId": 22
		},
		{
			"id": 305,
			"code": 3316,
			"nameTH": "วังหิน",
			"nameEN": "Wang Hin",
			"ProvinceId": 22
		},
		{
			"id": 306,
			"code": 3317,
			"nameTH": "ภูสิงห์",
			"nameEN": "Phu Sing",
			"ProvinceId": 22
		},
		{
			"id": 307,
			"code": 3318,
			"nameTH": "เมืองจันทร์",
			"nameEN": "Mueang Chan",
			"ProvinceId": 22
		},
		{
			"id": 308,
			"code": 3319,
			"nameTH": "เบญจลักษ์",
			"nameEN": "Benchalak",
			"ProvinceId": 22
		},
		{
			"id": 309,
			"code": 3320,
			"nameTH": "พยุห์",
			"nameEN": "Phayu",
			"ProvinceId": 22
		},
		{
			"id": 310,
			"code": 3321,
			"nameTH": "โพธิ์ศรีสุวรรณ",
			"nameEN": "Pho Si Suwan",
			"ProvinceId": 22
		},
		{
			"id": 311,
			"code": 3322,
			"nameTH": "ศิลาลาด",
			"nameEN": "Sila Lat",
			"ProvinceId": 22
		},
		{
			"id": 312,
			"code": 3401,
			"nameTH": "เมืองอุบลราชธานี",
			"nameEN": "Mueang Ubon Ratchathani",
			"ProvinceId": 23
		},
		{
			"id": 313,
			"code": 3402,
			"nameTH": "ศรีเมืองใหม่",
			"nameEN": "Si Mueang Mai",
			"ProvinceId": 23
		},
		{
			"id": 314,
			"code": 3403,
			"nameTH": "โขงเจียม",
			"nameEN": "Khong Chiam",
			"ProvinceId": 23
		},
		{
			"id": 315,
			"code": 3404,
			"nameTH": "เขื่องใน",
			"nameEN": "Khueang Nai",
			"ProvinceId": 23
		},
		{
			"id": 316,
			"code": 3405,
			"nameTH": "เขมราฐ",
			"nameEN": "Khemarat",
			"ProvinceId": 23
		},
		{
			"id": 317,
			"code": 3406,
			"nameTH": "*ชานุมาน",
			"nameEN": "*Shanuman",
			"ProvinceId": 23
		},
		{
			"id": 318,
			"code": 3407,
			"nameTH": "เดชอุดม",
			"nameEN": "Det Udom",
			"ProvinceId": 23
		},
		{
			"id": 319,
			"code": 3408,
			"nameTH": "นาจะหลวย",
			"nameEN": "Na Chaluai",
			"ProvinceId": 23
		},
		{
			"id": 320,
			"code": 3409,
			"nameTH": "น้ำยืน",
			"nameEN": "Nam Yuen",
			"ProvinceId": 23
		},
		{
			"id": 321,
			"code": 3410,
			"nameTH": "บุณฑริก",
			"nameEN": "Buntharik",
			"ProvinceId": 23
		},
		{
			"id": 322,
			"code": 3411,
			"nameTH": "ตระการพืชผล",
			"nameEN": "Trakan Phuet Phon",
			"ProvinceId": 23
		},
		{
			"id": 323,
			"code": 3412,
			"nameTH": "กุดข้าวปุ้น",
			"nameEN": "Kut Khaopun",
			"ProvinceId": 23
		},
		{
			"id": 324,
			"code": 3413,
			"nameTH": "*พนา",
			"nameEN": "*Phana",
			"ProvinceId": 23
		},
		{
			"id": 325,
			"code": 3414,
			"nameTH": "ม่วงสามสิบ",
			"nameEN": "Muang Sam Sip",
			"ProvinceId": 23
		},
		{
			"id": 326,
			"code": 3415,
			"nameTH": "วารินชำราบ",
			"nameEN": "Warin Chamrap",
			"ProvinceId": 23
		},
		{
			"id": 327,
			"code": 3416,
			"nameTH": "*อำนาจเจริญ",
			"nameEN": "*Amnat Charoen",
			"ProvinceId": 23
		},
		{
			"id": 328,
			"code": 3417,
			"nameTH": "*เสนางคนิคม",
			"nameEN": "*Senangkhanikhom",
			"ProvinceId": 23
		},
		{
			"id": 329,
			"code": 3418,
			"nameTH": "*หัวตะพาน",
			"nameEN": "*Hua Taphan",
			"ProvinceId": 23
		},
		{
			"id": 330,
			"code": 3419,
			"nameTH": "พิบูลมังสาหาร",
			"nameEN": "Phibun Mangsahan",
			"ProvinceId": 23
		},
		{
			"id": 331,
			"code": 3420,
			"nameTH": "ตาลสุม",
			"nameEN": "Tan Sum",
			"ProvinceId": 23
		},
		{
			"id": 332,
			"code": 3421,
			"nameTH": "โพธิ์ไทร",
			"nameEN": "Pho Sai",
			"ProvinceId": 23
		},
		{
			"id": 333,
			"code": 3422,
			"nameTH": "สำโรง",
			"nameEN": "Samrong",
			"ProvinceId": 23
		},
		{
			"id": 334,
			"code": 3423,
			"nameTH": "*กิ่งอำเภอลืออำนาจ",
			"nameEN": "*King Amphoe Lue Amnat",
			"ProvinceId": 23
		},
		{
			"id": 335,
			"code": 3424,
			"nameTH": "ดอนมดแดง",
			"nameEN": "Don Mot Daeng",
			"ProvinceId": 23
		},
		{
			"id": 336,
			"code": 3425,
			"nameTH": "สิรินธร",
			"nameEN": "Sirindhorn",
			"ProvinceId": 23
		},
		{
			"id": 337,
			"code": 3426,
			"nameTH": "ทุ่งศรีอุดม",
			"nameEN": "Thung Si Udom",
			"ProvinceId": 23
		},
		{
			"id": 338,
			"code": 3427,
			"nameTH": "*ปทุมราชวงศา",
			"nameEN": "*Pathum Ratchawongsa",
			"ProvinceId": 23
		},
		{
			"id": 339,
			"code": 3428,
			"nameTH": "*กิ่งอำเภอศรีหลักชัย",
			"nameEN": "*King Amphoe Sri Lunk Chai",
			"ProvinceId": 23
		},
		{
			"id": 340,
			"code": 3429,
			"nameTH": "นาเยีย",
			"nameEN": "Na Yia",
			"ProvinceId": 23
		},
		{
			"id": 341,
			"code": 3430,
			"nameTH": "นาตาล",
			"nameEN": "Na Tan",
			"ProvinceId": 23
		},
		{
			"id": 342,
			"code": 3431,
			"nameTH": "เหล่าเสือโก้ก",
			"nameEN": "Lao Suea Kok",
			"ProvinceId": 23
		},
		{
			"id": 343,
			"code": 3432,
			"nameTH": "สว่างวีระวงศ์",
			"nameEN": "Sawang Wirawong",
			"ProvinceId": 23
		},
		{
			"id": 344,
			"code": 3433,
			"nameTH": "น้ำขุ่น",
			"nameEN": "Nam Khun",
			"ProvinceId": 23
		},
		{
			"id": 345,
			"code": 3481,
			"nameTH": "*อ.สุวรรณวารี  จ.อุบลราชธานี",
			"nameEN": "*Suwan Wari",
			"ProvinceId": 23
		},
		{
			"id": 346,
			"code": 3501,
			"nameTH": "เมืองยโสธร",
			"nameEN": "Mueang Yasothon",
			"ProvinceId": 24
		},
		{
			"id": 347,
			"code": 3502,
			"nameTH": "ทรายมูล",
			"nameEN": "Sai Mun",
			"ProvinceId": 24
		},
		{
			"id": 348,
			"code": 3503,
			"nameTH": "กุดชุม",
			"nameEN": "Kut Chum",
			"ProvinceId": 24
		},
		{
			"id": 349,
			"code": 3504,
			"nameTH": "คำเขื่อนแก้ว",
			"nameEN": "Kham Khuean Kaeo",
			"ProvinceId": 24
		},
		{
			"id": 350,
			"code": 3505,
			"nameTH": "ป่าติ้ว",
			"nameEN": "Pa Tio",
			"ProvinceId": 24
		},
		{
			"id": 351,
			"code": 3506,
			"nameTH": "มหาชนะชัย",
			"nameEN": "Maha Chana Chai",
			"ProvinceId": 24
		},
		{
			"id": 352,
			"code": 3507,
			"nameTH": "ค้อวัง",
			"nameEN": "Kho Wang",
			"ProvinceId": 24
		},
		{
			"id": 353,
			"code": 3508,
			"nameTH": "เลิงนกทา",
			"nameEN": "Loeng Nok Tha",
			"ProvinceId": 24
		},
		{
			"id": 354,
			"code": 3509,
			"nameTH": "ไทยเจริญ",
			"nameEN": "Thai Charoen",
			"ProvinceId": 24
		},
		{
			"id": 355,
			"code": 3601,
			"nameTH": "เมืองชัยภูมิ",
			"nameEN": "Mueang Chaiyaphum",
			"ProvinceId": 25
		},
		{
			"id": 356,
			"code": 3602,
			"nameTH": "บ้านเขว้า",
			"nameEN": "Ban Khwao",
			"ProvinceId": 25
		},
		{
			"id": 357,
			"code": 3603,
			"nameTH": "คอนสวรรค์",
			"nameEN": "Khon Sawan",
			"ProvinceId": 25
		},
		{
			"id": 358,
			"code": 3604,
			"nameTH": "เกษตรสมบูรณ์",
			"nameEN": "Kaset Sombun",
			"ProvinceId": 25
		},
		{
			"id": 359,
			"code": 3605,
			"nameTH": "หนองบัวแดง",
			"nameEN": "Nong Bua Daeng",
			"ProvinceId": 25
		},
		{
			"id": 360,
			"code": 3606,
			"nameTH": "จัตุรัส",
			"nameEN": "Chatturat",
			"ProvinceId": 25
		},
		{
			"id": 361,
			"code": 3607,
			"nameTH": "บำเหน็จณรงค์",
			"nameEN": "Bamnet Narong",
			"ProvinceId": 25
		},
		{
			"id": 362,
			"code": 3608,
			"nameTH": "หนองบัวระเหว",
			"nameEN": "Nong Bua Rawe",
			"ProvinceId": 25
		},
		{
			"id": 363,
			"code": 3609,
			"nameTH": "เทพสถิต",
			"nameEN": "Thep Sathit",
			"ProvinceId": 25
		},
		{
			"id": 364,
			"code": 3610,
			"nameTH": "ภูเขียว",
			"nameEN": "Phu Khiao",
			"ProvinceId": 25
		},
		{
			"id": 365,
			"code": 3611,
			"nameTH": "บ้านแท่น",
			"nameEN": "Ban Thaen",
			"ProvinceId": 25
		},
		{
			"id": 366,
			"code": 3612,
			"nameTH": "แก้งคร้อ",
			"nameEN": "Kaeng Khro",
			"ProvinceId": 25
		},
		{
			"id": 367,
			"code": 3613,
			"nameTH": "คอนสาร",
			"nameEN": "Khon San",
			"ProvinceId": 25
		},
		{
			"id": 368,
			"code": 3614,
			"nameTH": "ภักดีชุมพล",
			"nameEN": "Phakdi Chumphon",
			"ProvinceId": 25
		},
		{
			"id": 369,
			"code": 3615,
			"nameTH": "เนินสง่า",
			"nameEN": "Noen Sa-nga",
			"ProvinceId": 25
		},
		{
			"id": 370,
			"code": 3616,
			"nameTH": "ซับใหญ่",
			"nameEN": "Sap Yai",
			"ProvinceId": 25
		},
		{
			"id": 371,
			"code": 3651,
			"nameTH": "เมืองชัยภูมิ (สาขาตำบลโนนสำราญ)*",
			"nameEN": "Mueang Chaiyaphum(Non Sumran)*",
			"ProvinceId": 25
		},
		{
			"id": 372,
			"code": 3652,
			"nameTH": "สาขาตำบลบ้านหว่าเฒ่า*",
			"nameEN": "Ban Wha Tao*",
			"ProvinceId": 25
		},
		{
			"id": 373,
			"code": 3653,
			"nameTH": "หนองบัวแดง (สาขาตำบลวังชมภู)*",
			"nameEN": "Nong Bua Daeng",
			"ProvinceId": 25
		},
		{
			"id": 374,
			"code": 3654,
			"nameTH": "กิ่งอำเภอซับใหญ่ (สาขาตำบลซับใหญ่)*",
			"nameEN": "King Amphoe Sap Yai*",
			"ProvinceId": 25
		},
		{
			"id": 375,
			"code": 3655,
			"nameTH": "สาขาตำบลโคกเพชร*",
			"nameEN": "Coke Phet*",
			"ProvinceId": 25
		},
		{
			"id": 376,
			"code": 3656,
			"nameTH": "เทพสถิต (สาขาตำบลนายางกลัก)*",
			"nameEN": "Thep Sathit*",
			"ProvinceId": 25
		},
		{
			"id": 377,
			"code": 3657,
			"nameTH": "บ้านแท่น (สาขาตำบลบ้านเต่า)*",
			"nameEN": "Ban Thaen",
			"ProvinceId": 25
		},
		{
			"id": 378,
			"code": 3658,
			"nameTH": "แก้งคร้อ (สาขาตำบลท่ามะไฟหวาน)*",
			"nameEN": "Kaeng Khro*",
			"ProvinceId": 25
		},
		{
			"id": 379,
			"code": 3659,
			"nameTH": "คอนสาร (สาขาตำบลโนนคูณ)*",
			"nameEN": "Khon San*",
			"ProvinceId": 25
		},
		{
			"id": 380,
			"code": 3701,
			"nameTH": "เมืองอำนาจเจริญ",
			"nameEN": "Mueang Amnat Charoen",
			"ProvinceId": 26
		},
		{
			"id": 381,
			"code": 3702,
			"nameTH": "ชานุมาน",
			"nameEN": "Chanuman",
			"ProvinceId": 26
		},
		{
			"id": 382,
			"code": 3703,
			"nameTH": "ปทุมราชวงศา",
			"nameEN": "Pathum Ratchawongsa",
			"ProvinceId": 26
		},
		{
			"id": 383,
			"code": 3704,
			"nameTH": "พนา",
			"nameEN": "Phana",
			"ProvinceId": 26
		},
		{
			"id": 384,
			"code": 3705,
			"nameTH": "เสนางคนิคม",
			"nameEN": "Senangkhanikhom",
			"ProvinceId": 26
		},
		{
			"id": 385,
			"code": 3706,
			"nameTH": "หัวตะพาน",
			"nameEN": "Hua Taphan",
			"ProvinceId": 26
		},
		{
			"id": 386,
			"code": 3707,
			"nameTH": "ลืออำนาจ",
			"nameEN": "Lue Amnat",
			"ProvinceId": 26
		},
		{
			"id": 387,
			"code": 3901,
			"nameTH": "เมืองหนองบัวลำภู",
			"nameEN": "Mueang Nong Bua Lam Phu",
			"ProvinceId": 27
		},
		{
			"id": 388,
			"code": 3902,
			"nameTH": "นากลาง",
			"nameEN": "Na Klang",
			"ProvinceId": 27
		},
		{
			"id": 389,
			"code": 3903,
			"nameTH": "โนนสัง",
			"nameEN": "Non Sang",
			"ProvinceId": 27
		},
		{
			"id": 390,
			"code": 3904,
			"nameTH": "ศรีบุญเรือง",
			"nameEN": "Si Bun Rueang",
			"ProvinceId": 27
		},
		{
			"id": 391,
			"code": 3905,
			"nameTH": "สุวรรณคูหา",
			"nameEN": "Suwannakhuha",
			"ProvinceId": 27
		},
		{
			"id": 392,
			"code": 3906,
			"nameTH": "นาวัง",
			"nameEN": "Na Wang",
			"ProvinceId": 27
		},
		{
			"id": 393,
			"code": 4001,
			"nameTH": "เมืองขอนแก่น",
			"nameEN": "Mueang Khon Kaen",
			"ProvinceId": 28
		},
		{
			"id": 394,
			"code": 4002,
			"nameTH": "บ้านฝาง",
			"nameEN": "Ban Fang",
			"ProvinceId": 28
		},
		{
			"id": 395,
			"code": 4003,
			"nameTH": "พระยืน",
			"nameEN": "Phra Yuen",
			"ProvinceId": 28
		},
		{
			"id": 396,
			"code": 4004,
			"nameTH": "หนองเรือ",
			"nameEN": "Nong Ruea",
			"ProvinceId": 28
		},
		{
			"id": 397,
			"code": 4005,
			"nameTH": "ชุมแพ",
			"nameEN": "Chum Phae",
			"ProvinceId": 28
		},
		{
			"id": 398,
			"code": 4006,
			"nameTH": "สีชมพู",
			"nameEN": "Si Chomphu",
			"ProvinceId": 28
		},
		{
			"id": 399,
			"code": 4007,
			"nameTH": "น้ำพอง",
			"nameEN": "Nam Phong",
			"ProvinceId": 28
		},
		{
			"id": 400,
			"code": 4008,
			"nameTH": "อุบลรัตน์",
			"nameEN": "Ubolratana",
			"ProvinceId": 28
		},
		{
			"id": 401,
			"code": 4009,
			"nameTH": "กระนวน",
			"nameEN": "Kranuan",
			"ProvinceId": 28
		},
		{
			"id": 402,
			"code": 4010,
			"nameTH": "บ้านไผ่",
			"nameEN": "Ban Phai",
			"ProvinceId": 28
		},
		{
			"id": 403,
			"code": 4011,
			"nameTH": "เปือยน้อย",
			"nameEN": "Pueai Noi",
			"ProvinceId": 28
		},
		{
			"id": 404,
			"code": 4012,
			"nameTH": "พล",
			"nameEN": "Phon",
			"ProvinceId": 28
		},
		{
			"id": 405,
			"code": 4013,
			"nameTH": "แวงใหญ่",
			"nameEN": "Waeng Yai",
			"ProvinceId": 28
		},
		{
			"id": 406,
			"code": 4014,
			"nameTH": "แวงน้อย",
			"nameEN": "Waeng Noi",
			"ProvinceId": 28
		},
		{
			"id": 407,
			"code": 4015,
			"nameTH": "หนองสองห้อง",
			"nameEN": "Nong Song Hong",
			"ProvinceId": 28
		},
		{
			"id": 408,
			"code": 4016,
			"nameTH": "ภูเวียง",
			"nameEN": "Phu Wiang",
			"ProvinceId": 28
		},
		{
			"id": 409,
			"code": 4017,
			"nameTH": "มัญจาคีรี",
			"nameEN": "Mancha Khiri",
			"ProvinceId": 28
		},
		{
			"id": 410,
			"code": 4018,
			"nameTH": "ชนบท",
			"nameEN": "Chonnabot",
			"ProvinceId": 28
		},
		{
			"id": 411,
			"code": 4019,
			"nameTH": "เขาสวนกวาง",
			"nameEN": "Khao Suan Kwang",
			"ProvinceId": 28
		},
		{
			"id": 412,
			"code": 4020,
			"nameTH": "ภูผาม่าน",
			"nameEN": "Phu Pha Man",
			"ProvinceId": 28
		},
		{
			"id": 413,
			"code": 4021,
			"nameTH": "ซำสูง",
			"nameEN": "Sam Sung",
			"ProvinceId": 28
		},
		{
			"id": 414,
			"code": 4022,
			"nameTH": "โคกโพธิ์ไชย",
			"nameEN": "Khok Pho Chai",
			"ProvinceId": 28
		},
		{
			"id": 415,
			"code": 4023,
			"nameTH": "หนองนาคำ",
			"nameEN": "Nong Na Kham",
			"ProvinceId": 28
		},
		{
			"id": 416,
			"code": 4024,
			"nameTH": "บ้านแฮด",
			"nameEN": "Ban Haet",
			"ProvinceId": 28
		},
		{
			"id": 417,
			"code": 4025,
			"nameTH": "โนนศิลา",
			"nameEN": "Non Sila",
			"ProvinceId": 28
		},
		{
			"id": 418,
			"code": 4029,
			"nameTH": "เวียงเก่า",
			"nameEN": "Wiang Kao",
			"ProvinceId": 28
		},
		{
			"id": 419,
			"code": 4068,
			"nameTH": "ท้องถิ่นเทศบาลตำบลบ้านเป็ด*",
			"nameEN": "Ban Pet*",
			"ProvinceId": 28
		},
		{
			"id": 420,
			"code": 4098,
			"nameTH": "เทศบาลตำบลเมืองพล*",
			"nameEN": "Tet Saban Tambon Muang Phon*",
			"ProvinceId": 28
		},
		{
			"id": 421,
			"code": 4101,
			"nameTH": "เมืองอุดรธานี",
			"nameEN": "Mueang Udon Thani",
			"ProvinceId": 29
		},
		{
			"id": 422,
			"code": 4102,
			"nameTH": "กุดจับ",
			"nameEN": "Kut Chap",
			"ProvinceId": 29
		},
		{
			"id": 423,
			"code": 4103,
			"nameTH": "หนองวัวซอ",
			"nameEN": "Nong Wua So",
			"ProvinceId": 29
		},
		{
			"id": 424,
			"code": 4104,
			"nameTH": "กุมภวาปี",
			"nameEN": "Kumphawapi",
			"ProvinceId": 29
		},
		{
			"id": 425,
			"code": 4105,
			"nameTH": "โนนสะอาด",
			"nameEN": "Non Sa-at",
			"ProvinceId": 29
		},
		{
			"id": 426,
			"code": 4106,
			"nameTH": "หนองหาน",
			"nameEN": "Nong Han",
			"ProvinceId": 29
		},
		{
			"id": 427,
			"code": 4107,
			"nameTH": "ทุ่งฝน",
			"nameEN": "Thung Fon",
			"ProvinceId": 29
		},
		{
			"id": 428,
			"code": 4108,
			"nameTH": "ไชยวาน",
			"nameEN": "Chai Wan",
			"ProvinceId": 29
		},
		{
			"id": 429,
			"code": 4109,
			"nameTH": "ศรีธาตุ",
			"nameEN": "Si That",
			"ProvinceId": 29
		},
		{
			"id": 430,
			"code": 4110,
			"nameTH": "วังสามหมอ",
			"nameEN": "Wang Sam Mo",
			"ProvinceId": 29
		},
		{
			"id": 431,
			"code": 4111,
			"nameTH": "บ้านดุง",
			"nameEN": "Ban Dung",
			"ProvinceId": 29
		},
		{
			"id": 432,
			"code": 4112,
			"nameTH": "*หนองบัวลำภู",
			"nameEN": "*Nong Bua Lam Phu",
			"ProvinceId": 29
		},
		{
			"id": 433,
			"code": 4113,
			"nameTH": "*ศรีบุญเรือง",
			"nameEN": "*Si Bun Rueang",
			"ProvinceId": 29
		},
		{
			"id": 434,
			"code": 4114,
			"nameTH": "*นากลาง",
			"nameEN": "*Na Klang",
			"ProvinceId": 29
		},
		{
			"id": 435,
			"code": 4115,
			"nameTH": "*สุวรรณคูหา",
			"nameEN": "*Suwannakhuha",
			"ProvinceId": 29
		},
		{
			"id": 436,
			"code": 4116,
			"nameTH": "*โนนสัง",
			"nameEN": "*Non Sang",
			"ProvinceId": 29
		},
		{
			"id": 437,
			"code": 4117,
			"nameTH": "บ้านผือ",
			"nameEN": "Ban Phue",
			"ProvinceId": 29
		},
		{
			"id": 438,
			"code": 4118,
			"nameTH": "น้ำโสม",
			"nameEN": "Nam Som",
			"ProvinceId": 29
		},
		{
			"id": 439,
			"code": 4119,
			"nameTH": "เพ็ญ",
			"nameEN": "Phen",
			"ProvinceId": 29
		},
		{
			"id": 440,
			"code": 4120,
			"nameTH": "สร้างคอม",
			"nameEN": "Sang Khom",
			"ProvinceId": 29
		},
		{
			"id": 441,
			"code": 4121,
			"nameTH": "หนองแสง",
			"nameEN": "Nong Saeng",
			"ProvinceId": 29
		},
		{
			"id": 442,
			"code": 4122,
			"nameTH": "นายูง",
			"nameEN": "Na Yung",
			"ProvinceId": 29
		},
		{
			"id": 443,
			"code": 4123,
			"nameTH": "พิบูลย์รักษ์",
			"nameEN": "Phibun Rak",
			"ProvinceId": 29
		},
		{
			"id": 444,
			"code": 4124,
			"nameTH": "กู่แก้ว",
			"nameEN": "Ku Kaeo",
			"ProvinceId": 29
		},
		{
			"id": 445,
			"code": 4125,
			"nameTH": "ประจักษ์ศิลปาคม",
			"nameEN": "rachak-sinlapakhom",
			"ProvinceId": 29
		},
		{
			"id": 446,
			"code": 4201,
			"nameTH": "เมืองเลย",
			"nameEN": "Mueang Loei",
			"ProvinceId": 30
		},
		{
			"id": 447,
			"code": 4202,
			"nameTH": "นาด้วง",
			"nameEN": "Na Duang",
			"ProvinceId": 30
		},
		{
			"id": 448,
			"code": 4203,
			"nameTH": "เชียงคาน",
			"nameEN": "Chiang Khan",
			"ProvinceId": 30
		},
		{
			"id": 449,
			"code": 4204,
			"nameTH": "ปากชม",
			"nameEN": "Pak Chom",
			"ProvinceId": 30
		},
		{
			"id": 450,
			"code": 4205,
			"nameTH": "ด่านซ้าย",
			"nameEN": "Dan Sai",
			"ProvinceId": 30
		},
		{
			"id": 451,
			"code": 4206,
			"nameTH": "นาแห้ว",
			"nameEN": "Na Haeo",
			"ProvinceId": 30
		},
		{
			"id": 452,
			"code": 4207,
			"nameTH": "ภูเรือ",
			"nameEN": "Phu Ruea",
			"ProvinceId": 30
		},
		{
			"id": 453,
			"code": 4208,
			"nameTH": "ท่าลี่",
			"nameEN": "Tha Li",
			"ProvinceId": 30
		},
		{
			"id": 454,
			"code": 4209,
			"nameTH": "วังสะพุง",
			"nameEN": "Wang Saphung",
			"ProvinceId": 30
		},
		{
			"id": 455,
			"code": 4210,
			"nameTH": "ภูกระดึง",
			"nameEN": "Phu Kradueng",
			"ProvinceId": 30
		},
		{
			"id": 456,
			"code": 4211,
			"nameTH": "ภูหลวง",
			"nameEN": "Phu Luang",
			"ProvinceId": 30
		},
		{
			"id": 457,
			"code": 4212,
			"nameTH": "ผาขาว",
			"nameEN": "Pha Khao",
			"ProvinceId": 30
		},
		{
			"id": 458,
			"code": 4213,
			"nameTH": "เอราวัณ",
			"nameEN": "Erawan",
			"ProvinceId": 30
		},
		{
			"id": 459,
			"code": 4214,
			"nameTH": "หนองหิน",
			"nameEN": "Nong Hin",
			"ProvinceId": 30
		},
		{
			"id": 460,
			"code": 4301,
			"nameTH": "เมืองหนองคาย",
			"nameEN": "Mueang Nong Khai",
			"ProvinceId": 31
		},
		{
			"id": 461,
			"code": 4302,
			"nameTH": "ท่าบ่อ",
			"nameEN": "Tha Bo",
			"ProvinceId": 31
		},
		{
			"id": 464,
			"code": 4305,
			"nameTH": "โพนพิสัย",
			"nameEN": "Phon Phisai",
			"ProvinceId": 31
		},
		{
			"id": 466,
			"code": 4307,
			"nameTH": "ศรีเชียงใหม่",
			"nameEN": "Si Chiang Mai",
			"ProvinceId": 31
		},
		{
			"id": 467,
			"code": 4308,
			"nameTH": "สังคม",
			"nameEN": "Sangkhom",
			"ProvinceId": 31
		},
		{
			"id": 473,
			"code": 4314,
			"nameTH": "สระใคร",
			"nameEN": "Sakhrai",
			"ProvinceId": 31
		},
		{
			"id": 474,
			"code": 4315,
			"nameTH": "เฝ้าไร่",
			"nameEN": "Fao Rai",
			"ProvinceId": 31
		},
		{
			"id": 475,
			"code": 4316,
			"nameTH": "รัตนวาปี",
			"nameEN": "Rattanawapi",
			"ProvinceId": 31
		},
		{
			"id": 476,
			"code": 4317,
			"nameTH": "โพธิ์ตาก",
			"nameEN": "Pho Tak",
			"ProvinceId": 31
		},
		{
			"id": 477,
			"code": 4401,
			"nameTH": "เมืองมหาสารคาม",
			"nameEN": "Mueang Maha Sarakham",
			"ProvinceId": 32
		},
		{
			"id": 478,
			"code": 4402,
			"nameTH": "แกดำ",
			"nameEN": "Kae Dam",
			"ProvinceId": 32
		},
		{
			"id": 479,
			"code": 4403,
			"nameTH": "โกสุมพิสัย",
			"nameEN": "Kosum Phisai",
			"ProvinceId": 32
		},
		{
			"id": 480,
			"code": 4404,
			"nameTH": "กันทรวิชัย",
			"nameEN": "Kantharawichai",
			"ProvinceId": 32
		},
		{
			"id": 481,
			"code": 4405,
			"nameTH": "เชียงยืน",
			"nameEN": "Kantharawichai",
			"ProvinceId": 32
		},
		{
			"id": 482,
			"code": 4406,
			"nameTH": "บรบือ",
			"nameEN": "Borabue",
			"ProvinceId": 32
		},
		{
			"id": 483,
			"code": 4407,
			"nameTH": "นาเชือก",
			"nameEN": "Na Chueak",
			"ProvinceId": 32
		},
		{
			"id": 484,
			"code": 4408,
			"nameTH": "พยัคฆภูมิพิสัย",
			"nameEN": "Phayakkhaphum Phisai",
			"ProvinceId": 32
		},
		{
			"id": 485,
			"code": 4409,
			"nameTH": "วาปีปทุม",
			"nameEN": "Wapi Pathum",
			"ProvinceId": 32
		},
		{
			"id": 486,
			"code": 4410,
			"nameTH": "นาดูน",
			"nameEN": "Na Dun",
			"ProvinceId": 32
		},
		{
			"id": 487,
			"code": 4411,
			"nameTH": "ยางสีสุราช",
			"nameEN": "Yang Sisurat",
			"ProvinceId": 32
		},
		{
			"id": 488,
			"code": 4412,
			"nameTH": "กุดรัง",
			"nameEN": "Kut Rang",
			"ProvinceId": 32
		},
		{
			"id": 489,
			"code": 4413,
			"nameTH": "ชื่นชม",
			"nameEN": "Chuen Chom",
			"ProvinceId": 32
		},
		{
			"id": 490,
			"code": 4481,
			"nameTH": "*หลุบ",
			"nameEN": "*Lub",
			"ProvinceId": 32
		},
		{
			"id": 491,
			"code": 4501,
			"nameTH": "เมืองร้อยเอ็ด",
			"nameEN": "Mueang Roi Et",
			"ProvinceId": 33
		},
		{
			"id": 492,
			"code": 4502,
			"nameTH": "เกษตรวิสัย",
			"nameEN": "Kaset Wisai",
			"ProvinceId": 33
		},
		{
			"id": 493,
			"code": 4503,
			"nameTH": "ปทุมรัตต์",
			"nameEN": "Pathum Rat",
			"ProvinceId": 33
		},
		{
			"id": 494,
			"code": 4504,
			"nameTH": "จตุรพักตรพิมาน",
			"nameEN": "Chaturaphak Phiman",
			"ProvinceId": 33
		},
		{
			"id": 495,
			"code": 4505,
			"nameTH": "ธวัชบุรี",
			"nameEN": "Thawat Buri",
			"ProvinceId": 33
		},
		{
			"id": 496,
			"code": 4506,
			"nameTH": "พนมไพร",
			"nameEN": "Phanom Phrai",
			"ProvinceId": 33
		},
		{
			"id": 497,
			"code": 4507,
			"nameTH": "โพนทอง",
			"nameEN": "Phon Thong",
			"ProvinceId": 33
		},
		{
			"id": 498,
			"code": 4508,
			"nameTH": "โพธิ์ชัย",
			"nameEN": "Pho Chai",
			"ProvinceId": 33
		},
		{
			"id": 499,
			"code": 4509,
			"nameTH": "หนองพอก",
			"nameEN": "Nong Phok",
			"ProvinceId": 33
		},
		{
			"id": 500,
			"code": 4510,
			"nameTH": "เสลภูมิ",
			"nameEN": "Selaphum",
			"ProvinceId": 33
		},
		{
			"id": 501,
			"code": 4511,
			"nameTH": "สุวรรณภูมิ",
			"nameEN": "Suwannaphum",
			"ProvinceId": 33
		},
		{
			"id": 502,
			"code": 4512,
			"nameTH": "เมืองสรวง",
			"nameEN": "Mueang Suang",
			"ProvinceId": 33
		},
		{
			"id": 503,
			"code": 4513,
			"nameTH": "โพนทราย",
			"nameEN": "Phon Sai",
			"ProvinceId": 33
		},
		{
			"id": 504,
			"code": 4514,
			"nameTH": "อาจสามารถ",
			"nameEN": "At Samat",
			"ProvinceId": 33
		},
		{
			"id": 505,
			"code": 4515,
			"nameTH": "เมยวดี",
			"nameEN": "Moei Wadi",
			"ProvinceId": 33
		},
		{
			"id": 506,
			"code": 4516,
			"nameTH": "ศรีสมเด็จ",
			"nameEN": "Si Somdet",
			"ProvinceId": 33
		},
		{
			"id": 507,
			"code": 4517,
			"nameTH": "จังหาร",
			"nameEN": "Changhan",
			"ProvinceId": 33
		},
		{
			"id": 508,
			"code": 4518,
			"nameTH": "เชียงขวัญ",
			"nameEN": "Chiang Khwan",
			"ProvinceId": 33
		},
		{
			"id": 509,
			"code": 4519,
			"nameTH": "หนองฮี",
			"nameEN": "Nong Hi",
			"ProvinceId": 33
		},
		{
			"id": 510,
			"code": 4520,
			"nameTH": "ทุ่งเขาหลวง",
			"nameEN": "Thung Khao Luangกิ่",
			"ProvinceId": 33
		},
		{
			"id": 511,
			"code": 4601,
			"nameTH": "เมืองกาฬสินธุ์",
			"nameEN": "Mueang Kalasin",
			"ProvinceId": 34
		},
		{
			"id": 512,
			"code": 4602,
			"nameTH": "นามน",
			"nameEN": "Na Mon",
			"ProvinceId": 34
		},
		{
			"id": 513,
			"code": 4603,
			"nameTH": "กมลาไสย",
			"nameEN": "Kamalasai",
			"ProvinceId": 34
		},
		{
			"id": 514,
			"code": 4604,
			"nameTH": "ร่องคำ",
			"nameEN": "Rong Kham",
			"ProvinceId": 34
		},
		{
			"id": 515,
			"code": 4605,
			"nameTH": "กุฉินารายณ์",
			"nameEN": "Kuchinarai",
			"ProvinceId": 34
		},
		{
			"id": 516,
			"code": 4606,
			"nameTH": "เขาวง",
			"nameEN": "Khao Wong",
			"ProvinceId": 34
		},
		{
			"id": 517,
			"code": 4607,
			"nameTH": "ยางตลาด",
			"nameEN": "Yang Talat",
			"ProvinceId": 34
		},
		{
			"id": 518,
			"code": 4608,
			"nameTH": "ห้วยเม็ก",
			"nameEN": "Huai Mek",
			"ProvinceId": 34
		},
		{
			"id": 519,
			"code": 4609,
			"nameTH": "สหัสขันธ์",
			"nameEN": "Sahatsakhan",
			"ProvinceId": 34
		},
		{
			"id": 520,
			"code": 4610,
			"nameTH": "คำม่วง",
			"nameEN": "Kham Muang",
			"ProvinceId": 34
		},
		{
			"id": 521,
			"code": 4611,
			"nameTH": "ท่าคันโท",
			"nameEN": "Tha Khantho",
			"ProvinceId": 34
		},
		{
			"id": 522,
			"code": 4612,
			"nameTH": "หนองกุงศรี",
			"nameEN": "Nong Kung Si",
			"ProvinceId": 34
		},
		{
			"id": 523,
			"code": 4613,
			"nameTH": "สมเด็จ",
			"nameEN": "Somdet",
			"ProvinceId": 34
		},
		{
			"id": 524,
			"code": 4614,
			"nameTH": "ห้วยผึ้ง",
			"nameEN": "Huai Phueng",
			"ProvinceId": 34
		},
		{
			"id": 525,
			"code": 4615,
			"nameTH": "สามชัย",
			"nameEN": "Sam Chai",
			"ProvinceId": 34
		},
		{
			"id": 526,
			"code": 4616,
			"nameTH": "นาคู",
			"nameEN": "Na Khu",
			"ProvinceId": 34
		},
		{
			"id": 527,
			"code": 4617,
			"nameTH": "ดอนจาน",
			"nameEN": "Don Chan",
			"ProvinceId": 34
		},
		{
			"id": 528,
			"code": 4618,
			"nameTH": "ฆ้องชัย",
			"nameEN": "Khong Chai",
			"ProvinceId": 34
		},
		{
			"id": 529,
			"code": 4701,
			"nameTH": "เมืองสกลนคร",
			"nameEN": "Mueang Sakon Nakhon",
			"ProvinceId": 35
		},
		{
			"id": 530,
			"code": 4702,
			"nameTH": "กุสุมาลย์",
			"nameEN": "Kusuman",
			"ProvinceId": 35
		},
		{
			"id": 531,
			"code": 4703,
			"nameTH": "กุดบาก",
			"nameEN": "Kut Bak",
			"ProvinceId": 35
		},
		{
			"id": 532,
			"code": 4704,
			"nameTH": "พรรณานิคม",
			"nameEN": "Phanna Nikhom",
			"ProvinceId": 35
		},
		{
			"id": 533,
			"code": 4705,
			"nameTH": "พังโคน",
			"nameEN": "Phang Khon",
			"ProvinceId": 35
		},
		{
			"id": 534,
			"code": 4706,
			"nameTH": "วาริชภูมิ",
			"nameEN": "Waritchaphum",
			"ProvinceId": 35
		},
		{
			"id": 535,
			"code": 4707,
			"nameTH": "นิคมน้ำอูน",
			"nameEN": "Nikhom Nam Un",
			"ProvinceId": 35
		},
		{
			"id": 536,
			"code": 4708,
			"nameTH": "วานรนิวาส",
			"nameEN": "Wanon Niwat",
			"ProvinceId": 35
		},
		{
			"id": 537,
			"code": 4709,
			"nameTH": "คำตากล้า",
			"nameEN": "Kham Ta Kla",
			"ProvinceId": 35
		},
		{
			"id": 538,
			"code": 4710,
			"nameTH": "บ้านม่วง",
			"nameEN": "Ban Muang",
			"ProvinceId": 35
		},
		{
			"id": 539,
			"code": 4711,
			"nameTH": "อากาศอำนวย",
			"nameEN": "Akat Amnuai",
			"ProvinceId": 35
		},
		{
			"id": 540,
			"code": 4712,
			"nameTH": "สว่างแดนดิน",
			"nameEN": "Sawang Daen Din",
			"ProvinceId": 35
		},
		{
			"id": 541,
			"code": 4713,
			"nameTH": "ส่องดาว",
			"nameEN": "Song Dao",
			"ProvinceId": 35
		},
		{
			"id": 542,
			"code": 4714,
			"nameTH": "เต่างอย",
			"nameEN": "Tao Ngoi",
			"ProvinceId": 35
		},
		{
			"id": 543,
			"code": 4715,
			"nameTH": "โคกศรีสุพรรณ",
			"nameEN": "Khok Si Suphan",
			"ProvinceId": 35
		},
		{
			"id": 544,
			"code": 4716,
			"nameTH": "เจริญศิลป์",
			"nameEN": "Charoen Sin",
			"ProvinceId": 35
		},
		{
			"id": 545,
			"code": 4717,
			"nameTH": "โพนนาแก้ว",
			"nameEN": "Phon Na Kaeo",
			"ProvinceId": 35
		},
		{
			"id": 546,
			"code": 4718,
			"nameTH": "ภูพาน",
			"nameEN": "Phu Phan",
			"ProvinceId": 35
		},
		{
			"id": 547,
			"code": 4751,
			"nameTH": "วานรนิวาส (สาขาตำบลกุดเรือคำ)*",
			"nameEN": "Wanon Niwat",
			"ProvinceId": 35
		},
		{
			"id": 548,
			"code": 4781,
			"nameTH": "*อ.บ้านหัน  จ.สกลนคร",
			"nameEN": "*Banhan",
			"ProvinceId": 35
		},
		{
			"id": 549,
			"code": 4801,
			"nameTH": "เมืองนครพนม",
			"nameEN": "Mueang Nakhon Phanom",
			"ProvinceId": 36
		},
		{
			"id": 550,
			"code": 4802,
			"nameTH": "ปลาปาก",
			"nameEN": "Pla Pak",
			"ProvinceId": 36
		},
		{
			"id": 551,
			"code": 4803,
			"nameTH": "ท่าอุเทน",
			"nameEN": "Tha Uthen",
			"ProvinceId": 36
		},
		{
			"id": 552,
			"code": 4804,
			"nameTH": "บ้านแพง",
			"nameEN": "Ban Phaeng",
			"ProvinceId": 36
		},
		{
			"id": 553,
			"code": 4805,
			"nameTH": "ธาตุพนม",
			"nameEN": "That Phanom",
			"ProvinceId": 36
		},
		{
			"id": 554,
			"code": 4806,
			"nameTH": "เรณูนคร",
			"nameEN": "Renu Nakhon",
			"ProvinceId": 36
		},
		{
			"id": 555,
			"code": 4807,
			"nameTH": "นาแก",
			"nameEN": "Na Kae",
			"ProvinceId": 36
		},
		{
			"id": 556,
			"code": 4808,
			"nameTH": "ศรีสงคราม",
			"nameEN": "Si Songkhram",
			"ProvinceId": 36
		},
		{
			"id": 557,
			"code": 4809,
			"nameTH": "นาหว้า",
			"nameEN": "Na Wa",
			"ProvinceId": 36
		},
		{
			"id": 558,
			"code": 4810,
			"nameTH": "โพนสวรรค์",
			"nameEN": "Phon Sawan",
			"ProvinceId": 36
		},
		{
			"id": 559,
			"code": 4811,
			"nameTH": "นาทม",
			"nameEN": "Na Thom",
			"ProvinceId": 36
		},
		{
			"id": 560,
			"code": 4812,
			"nameTH": "วังยาง",
			"nameEN": "Wang Yang",
			"ProvinceId": 36
		},
		{
			"id": 561,
			"code": 4901,
			"nameTH": "เมืองมุกดาหาร",
			"nameEN": "Mueang Mukdahan",
			"ProvinceId": 37
		},
		{
			"id": 562,
			"code": 4902,
			"nameTH": "นิคมคำสร้อย",
			"nameEN": "Nikhom Kham Soi",
			"ProvinceId": 37
		},
		{
			"id": 563,
			"code": 4903,
			"nameTH": "ดอนตาล",
			"nameEN": "Don Tan",
			"ProvinceId": 37
		},
		{
			"id": 564,
			"code": 4904,
			"nameTH": "ดงหลวง",
			"nameEN": "Dong Luang",
			"ProvinceId": 37
		},
		{
			"id": 565,
			"code": 4905,
			"nameTH": "คำชะอี",
			"nameEN": "Khamcha-i",
			"ProvinceId": 37
		},
		{
			"id": 566,
			"code": 4906,
			"nameTH": "หว้านใหญ่",
			"nameEN": "Wan Yai",
			"ProvinceId": 37
		},
		{
			"id": 567,
			"code": 4907,
			"nameTH": "หนองสูง",
			"nameEN": "Nong Sung",
			"ProvinceId": 37
		},
		{
			"id": 568,
			"code": 5001,
			"nameTH": "เมืองเชียงใหม่",
			"nameEN": "Mueang Chiang Mai",
			"ProvinceId": 38
		},
		{
			"id": 569,
			"code": 5002,
			"nameTH": "จอมทอง",
			"nameEN": "Chom Thong",
			"ProvinceId": 38
		},
		{
			"id": 570,
			"code": 5003,
			"nameTH": "แม่แจ่ม",
			"nameEN": "Mae Chaem",
			"ProvinceId": 38
		},
		{
			"id": 571,
			"code": 5004,
			"nameTH": "เชียงดาว",
			"nameEN": "Chiang Dao",
			"ProvinceId": 38
		},
		{
			"id": 572,
			"code": 5005,
			"nameTH": "ดอยสะเก็ด",
			"nameEN": "Doi Saket",
			"ProvinceId": 38
		},
		{
			"id": 573,
			"code": 5006,
			"nameTH": "แม่แตง",
			"nameEN": "Mae Taeng",
			"ProvinceId": 38
		},
		{
			"id": 574,
			"code": 5007,
			"nameTH": "แม่ริม",
			"nameEN": "Mae Rim",
			"ProvinceId": 38
		},
		{
			"id": 575,
			"code": 5008,
			"nameTH": "สะเมิง",
			"nameEN": "Samoeng",
			"ProvinceId": 38
		},
		{
			"id": 576,
			"code": 5009,
			"nameTH": "ฝาง",
			"nameEN": "Fang",
			"ProvinceId": 38
		},
		{
			"id": 577,
			"code": 5010,
			"nameTH": "แม่อาย",
			"nameEN": "Mae Ai",
			"ProvinceId": 38
		},
		{
			"id": 578,
			"code": 5011,
			"nameTH": "พร้าว",
			"nameEN": "Phrao",
			"ProvinceId": 38
		},
		{
			"id": 579,
			"code": 5012,
			"nameTH": "สันป่าตอง",
			"nameEN": "San Pa Tong",
			"ProvinceId": 38
		},
		{
			"id": 580,
			"code": 5013,
			"nameTH": "สันกำแพง",
			"nameEN": "San Kamphaeng",
			"ProvinceId": 38
		},
		{
			"id": 581,
			"code": 5014,
			"nameTH": "สันทราย",
			"nameEN": "San Sai",
			"ProvinceId": 38
		},
		{
			"id": 582,
			"code": 5015,
			"nameTH": "หางดง",
			"nameEN": "Hang Dong",
			"ProvinceId": 38
		},
		{
			"id": 583,
			"code": 5016,
			"nameTH": "ฮอด",
			"nameEN": "Hot",
			"ProvinceId": 38
		},
		{
			"id": 584,
			"code": 5017,
			"nameTH": "ดอยเต่า",
			"nameEN": "Doi Tao",
			"ProvinceId": 38
		},
		{
			"id": 585,
			"code": 5018,
			"nameTH": "อมก๋อย",
			"nameEN": "Omkoi",
			"ProvinceId": 38
		},
		{
			"id": 586,
			"code": 5019,
			"nameTH": "สารภี",
			"nameEN": "Saraphi",
			"ProvinceId": 38
		},
		{
			"id": 587,
			"code": 5020,
			"nameTH": "เวียงแหง",
			"nameEN": "Wiang Haeng",
			"ProvinceId": 38
		},
		{
			"id": 588,
			"code": 5021,
			"nameTH": "ไชยปราการ",
			"nameEN": "Chai Prakan",
			"ProvinceId": 38
		},
		{
			"id": 589,
			"code": 5022,
			"nameTH": "แม่วาง",
			"nameEN": "Mae Wang",
			"ProvinceId": 38
		},
		{
			"id": 590,
			"code": 5023,
			"nameTH": "แม่ออน",
			"nameEN": "Mae On",
			"ProvinceId": 38
		},
		{
			"id": 591,
			"code": 5024,
			"nameTH": "ดอยหล่อ",
			"nameEN": "Doi Lo",
			"ProvinceId": 38
		},
		{
			"id": 592,
			"code": 5051,
			"nameTH": "เทศบาลนครเชียงใหม่ (สาขาแขวงกาลวิละ)*",
			"nameEN": "Tet Saban Nakorn Chiangmai(Kan lawi la)*",
			"ProvinceId": 38
		},
		{
			"id": 593,
			"code": 5052,
			"nameTH": "เทศบาลนครเชียงใหม่ (สาขาแขวงศรีวิชั)*",
			"nameEN": "Tet Saban Nakorn Chiangmai(Sri Wi)*",
			"ProvinceId": 38
		},
		{
			"id": 594,
			"code": 5053,
			"nameTH": "เทศบาลนครเชียงใหม่ (สาขาเม็งราย)*",
			"nameEN": "Tet Saban Nakorn Chiangmai(Meng Rai)*",
			"ProvinceId": 38
		},
		{
			"id": 595,
			"code": 5101,
			"nameTH": "เมืองลำพูน",
			"nameEN": "Mueang Lamphun",
			"ProvinceId": 39
		},
		{
			"id": 596,
			"code": 5102,
			"nameTH": "แม่ทา",
			"nameEN": "Mae Tha",
			"ProvinceId": 39
		},
		{
			"id": 597,
			"code": 5103,
			"nameTH": "บ้านโฮ่ง",
			"nameEN": "Ban Hong",
			"ProvinceId": 39
		},
		{
			"id": 598,
			"code": 5104,
			"nameTH": "ลี้",
			"nameEN": "Li",
			"ProvinceId": 39
		},
		{
			"id": 599,
			"code": 5105,
			"nameTH": "ทุ่งหัวช้าง",
			"nameEN": "Thung Hua Chang",
			"ProvinceId": 39
		},
		{
			"id": 600,
			"code": 5106,
			"nameTH": "ป่าซาง",
			"nameEN": "Pa Sang",
			"ProvinceId": 39
		},
		{
			"id": 601,
			"code": 5107,
			"nameTH": "บ้านธิ",
			"nameEN": "Ban Thi",
			"ProvinceId": 39
		},
		{
			"id": 602,
			"code": 5108,
			"nameTH": "เวียงหนองล่อง",
			"nameEN": "Wiang Nong Long",
			"ProvinceId": 39
		},
		{
			"id": 603,
			"code": 5201,
			"nameTH": "เมืองลำปาง",
			"nameEN": "Mueang Lampang",
			"ProvinceId": 40
		},
		{
			"id": 604,
			"code": 5202,
			"nameTH": "แม่เมาะ",
			"nameEN": "Mae Mo",
			"ProvinceId": 40
		},
		{
			"id": 605,
			"code": 5203,
			"nameTH": "เกาะคา",
			"nameEN": "Ko Kha",
			"ProvinceId": 40
		},
		{
			"id": 606,
			"code": 5204,
			"nameTH": "เสริมงาม",
			"nameEN": "Soem Ngam",
			"ProvinceId": 40
		},
		{
			"id": 607,
			"code": 5205,
			"nameTH": "งาว",
			"nameEN": "Ngao",
			"ProvinceId": 40
		},
		{
			"id": 608,
			"code": 5206,
			"nameTH": "แจ้ห่ม",
			"nameEN": "Chae Hom",
			"ProvinceId": 40
		},
		{
			"id": 609,
			"code": 5207,
			"nameTH": "วังเหนือ",
			"nameEN": "Wang Nuea",
			"ProvinceId": 40
		},
		{
			"id": 610,
			"code": 5208,
			"nameTH": "เถิน",
			"nameEN": "Thoen",
			"ProvinceId": 40
		},
		{
			"id": 611,
			"code": 5209,
			"nameTH": "แม่พริก",
			"nameEN": "Mae Phrik",
			"ProvinceId": 40
		},
		{
			"id": 612,
			"code": 5210,
			"nameTH": "แม่ทะ",
			"nameEN": "Mae Tha",
			"ProvinceId": 40
		},
		{
			"id": 613,
			"code": 5211,
			"nameTH": "สบปราบ",
			"nameEN": "Sop Prap",
			"ProvinceId": 40
		},
		{
			"id": 614,
			"code": 5212,
			"nameTH": "ห้างฉัตร",
			"nameEN": "Hang Chat",
			"ProvinceId": 40
		},
		{
			"id": 615,
			"code": 5213,
			"nameTH": "เมืองปาน",
			"nameEN": "Mueang Pan",
			"ProvinceId": 40
		},
		{
			"id": 616,
			"code": 5301,
			"nameTH": "เมืองอุตรดิตถ์",
			"nameEN": "Mueang Uttaradit",
			"ProvinceId": 41
		},
		{
			"id": 617,
			"code": 5302,
			"nameTH": "ตรอน",
			"nameEN": "Tron",
			"ProvinceId": 41
		},
		{
			"id": 618,
			"code": 5303,
			"nameTH": "ท่าปลา",
			"nameEN": "Tha Pla",
			"ProvinceId": 41
		},
		{
			"id": 619,
			"code": 5304,
			"nameTH": "น้ำปาด",
			"nameEN": "Nam Pat",
			"ProvinceId": 41
		},
		{
			"id": 620,
			"code": 5305,
			"nameTH": "ฟากท่า",
			"nameEN": "Fak Tha",
			"ProvinceId": 41
		},
		{
			"id": 621,
			"code": 5306,
			"nameTH": "บ้านโคก",
			"nameEN": "Ban Khok",
			"ProvinceId": 41
		},
		{
			"id": 622,
			"code": 5307,
			"nameTH": "พิชัย",
			"nameEN": "Phichai",
			"ProvinceId": 41
		},
		{
			"id": 623,
			"code": 5308,
			"nameTH": "ลับแล",
			"nameEN": "Laplae",
			"ProvinceId": 41
		},
		{
			"id": 624,
			"code": 5309,
			"nameTH": "ทองแสนขัน",
			"nameEN": "Thong Saen Khan",
			"ProvinceId": 41
		},
		{
			"id": 625,
			"code": 5401,
			"nameTH": "เมืองแพร่",
			"nameEN": "Mueang Phrae",
			"ProvinceId": 42
		},
		{
			"id": 626,
			"code": 5402,
			"nameTH": "ร้องกวาง",
			"nameEN": "Rong Kwang",
			"ProvinceId": 42
		},
		{
			"id": 627,
			"code": 5403,
			"nameTH": "ลอง",
			"nameEN": "Long",
			"ProvinceId": 42
		},
		{
			"id": 628,
			"code": 5404,
			"nameTH": "สูงเม่น",
			"nameEN": "Sung Men",
			"ProvinceId": 42
		},
		{
			"id": 629,
			"code": 5405,
			"nameTH": "เด่นชัย",
			"nameEN": "Den Chai",
			"ProvinceId": 42
		},
		{
			"id": 630,
			"code": 5406,
			"nameTH": "สอง",
			"nameEN": "Song",
			"ProvinceId": 42
		},
		{
			"id": 631,
			"code": 5407,
			"nameTH": "วังชิ้น",
			"nameEN": "Wang Chin",
			"ProvinceId": 42
		},
		{
			"id": 632,
			"code": 5408,
			"nameTH": "หนองม่วงไข่",
			"nameEN": "Nong Muang Khai",
			"ProvinceId": 42
		},
		{
			"id": 633,
			"code": 5501,
			"nameTH": "เมืองน่าน",
			"nameEN": "Mueang Nan",
			"ProvinceId": 43
		},
		{
			"id": 634,
			"code": 5502,
			"nameTH": "แม่จริม",
			"nameEN": "Mae Charim",
			"ProvinceId": 43
		},
		{
			"id": 635,
			"code": 5503,
			"nameTH": "บ้านหลวง",
			"nameEN": "Ban Luang",
			"ProvinceId": 43
		},
		{
			"id": 636,
			"code": 5504,
			"nameTH": "นาน้อย",
			"nameEN": "Na Noi",
			"ProvinceId": 43
		},
		{
			"id": 637,
			"code": 5505,
			"nameTH": "ปัว",
			"nameEN": "Pua",
			"ProvinceId": 43
		},
		{
			"id": 638,
			"code": 5506,
			"nameTH": "ท่าวังผา",
			"nameEN": "Tha Wang Pha",
			"ProvinceId": 43
		},
		{
			"id": 639,
			"code": 5507,
			"nameTH": "เวียงสา",
			"nameEN": "Wiang Sa",
			"ProvinceId": 43
		},
		{
			"id": 640,
			"code": 5508,
			"nameTH": "ทุ่งช้าง",
			"nameEN": "Thung Chang",
			"ProvinceId": 43
		},
		{
			"id": 641,
			"code": 5509,
			"nameTH": "เชียงกลาง",
			"nameEN": "Chiang Klang",
			"ProvinceId": 43
		},
		{
			"id": 642,
			"code": 5510,
			"nameTH": "นาหมื่น",
			"nameEN": "Na Muen",
			"ProvinceId": 43
		},
		{
			"id": 643,
			"code": 5511,
			"nameTH": "สันติสุข",
			"nameEN": "Santi Suk",
			"ProvinceId": 43
		},
		{
			"id": 644,
			"code": 5512,
			"nameTH": "บ่อเกลือ",
			"nameEN": "Bo Kluea",
			"ProvinceId": 43
		},
		{
			"id": 645,
			"code": 5513,
			"nameTH": "สองแคว",
			"nameEN": "Song Khwae",
			"ProvinceId": 43
		},
		{
			"id": 646,
			"code": 5514,
			"nameTH": "ภูเพียง",
			"nameEN": "Phu Phiang",
			"ProvinceId": 43
		},
		{
			"id": 647,
			"code": 5515,
			"nameTH": "เฉลิมพระเกียรติ",
			"nameEN": "Chaloem Phra Kiat",
			"ProvinceId": 43
		},
		{
			"id": 648,
			"code": 5601,
			"nameTH": "เมืองพะเยา",
			"nameEN": "Mueang Phayao",
			"ProvinceId": 44
		},
		{
			"id": 649,
			"code": 5602,
			"nameTH": "จุน",
			"nameEN": "Chun",
			"ProvinceId": 44
		},
		{
			"id": 650,
			"code": 5603,
			"nameTH": "เชียงคำ",
			"nameEN": "Chiang Kham",
			"ProvinceId": 44
		},
		{
			"id": 651,
			"code": 5604,
			"nameTH": "เชียงม่วน",
			"nameEN": "Chiang Muan",
			"ProvinceId": 44
		},
		{
			"id": 652,
			"code": 5605,
			"nameTH": "ดอกคำใต้",
			"nameEN": "Dok Khamtai",
			"ProvinceId": 44
		},
		{
			"id": 653,
			"code": 5606,
			"nameTH": "ปง",
			"nameEN": "Pong",
			"ProvinceId": 44
		},
		{
			"id": 654,
			"code": 5607,
			"nameTH": "แม่ใจ",
			"nameEN": "Mae Chai",
			"ProvinceId": 44
		},
		{
			"id": 655,
			"code": 5608,
			"nameTH": "ภูซาง",
			"nameEN": "Phu Sang",
			"ProvinceId": 44
		},
		{
			"id": 656,
			"code": 5609,
			"nameTH": "ภูกามยาว",
			"nameEN": "Phu Kamyao",
			"ProvinceId": 44
		},
		{
			"id": 657,
			"code": 5701,
			"nameTH": "เมืองเชียงราย",
			"nameEN": "Mueang Chiang Rai",
			"ProvinceId": 45
		},
		{
			"id": 658,
			"code": 5702,
			"nameTH": "เวียงชัย",
			"nameEN": "Wiang Chai",
			"ProvinceId": 45
		},
		{
			"id": 659,
			"code": 5703,
			"nameTH": "เชียงของ",
			"nameEN": "Chiang Khong",
			"ProvinceId": 45
		},
		{
			"id": 660,
			"code": 5704,
			"nameTH": "เทิง",
			"nameEN": "Thoeng",
			"ProvinceId": 45
		},
		{
			"id": 661,
			"code": 5705,
			"nameTH": "พาน",
			"nameEN": "Phan",
			"ProvinceId": 45
		},
		{
			"id": 662,
			"code": 5706,
			"nameTH": "ป่าแดด",
			"nameEN": "Pa Daet",
			"ProvinceId": 45
		},
		{
			"id": 663,
			"code": 5707,
			"nameTH": "แม่จัน",
			"nameEN": "Mae Chan",
			"ProvinceId": 45
		},
		{
			"id": 664,
			"code": 5708,
			"nameTH": "เชียงแสน",
			"nameEN": "Chiang Saen",
			"ProvinceId": 45
		},
		{
			"id": 665,
			"code": 5709,
			"nameTH": "แม่สาย",
			"nameEN": "Mae Sai",
			"ProvinceId": 45
		},
		{
			"id": 666,
			"code": 5710,
			"nameTH": "แม่สรวย",
			"nameEN": "Mae Suai",
			"ProvinceId": 45
		},
		{
			"id": 667,
			"code": 5711,
			"nameTH": "เวียงป่าเป้า",
			"nameEN": "Wiang Pa Pao",
			"ProvinceId": 45
		},
		{
			"id": 668,
			"code": 5712,
			"nameTH": "พญาเม็งราย",
			"nameEN": "Phaya Mengrai",
			"ProvinceId": 45
		},
		{
			"id": 669,
			"code": 5713,
			"nameTH": "เวียงแก่น",
			"nameEN": "Wiang Kaen",
			"ProvinceId": 45
		},
		{
			"id": 670,
			"code": 5714,
			"nameTH": "ขุนตาล",
			"nameEN": "Khun Tan",
			"ProvinceId": 45
		},
		{
			"id": 671,
			"code": 5715,
			"nameTH": "แม่ฟ้าหลวง",
			"nameEN": "Mae Fa Luang",
			"ProvinceId": 45
		},
		{
			"id": 672,
			"code": 5716,
			"nameTH": "แม่ลาว",
			"nameEN": "Mae Lao",
			"ProvinceId": 45
		},
		{
			"id": 673,
			"code": 5717,
			"nameTH": "เวียงเชียงรุ้ง",
			"nameEN": "Wiang Chiang Rung",
			"ProvinceId": 45
		},
		{
			"id": 674,
			"code": 5718,
			"nameTH": "ดอยหลวง",
			"nameEN": "Doi Luang",
			"ProvinceId": 45
		},
		{
			"id": 675,
			"code": 5801,
			"nameTH": "เมืองแม่ฮ่องสอน",
			"nameEN": "Mueang Mae Hong Son",
			"ProvinceId": 46
		},
		{
			"id": 676,
			"code": 5802,
			"nameTH": "ขุนยวม",
			"nameEN": "Khun Yuam",
			"ProvinceId": 46
		},
		{
			"id": 677,
			"code": 5803,
			"nameTH": "ปาย",
			"nameEN": "Pai",
			"ProvinceId": 46
		},
		{
			"id": 678,
			"code": 5804,
			"nameTH": "แม่สะเรียง",
			"nameEN": "Mae Sariang",
			"ProvinceId": 46
		},
		{
			"id": 679,
			"code": 5805,
			"nameTH": "แม่ลาน้อย",
			"nameEN": "Mae La Noi",
			"ProvinceId": 46
		},
		{
			"id": 680,
			"code": 5806,
			"nameTH": "สบเมย",
			"nameEN": "Sop Moei",
			"ProvinceId": 46
		},
		{
			"id": 681,
			"code": 5807,
			"nameTH": "ปางมะผ้า",
			"nameEN": "Pang Mapha",
			"ProvinceId": 46
		},
		{
			"id": 682,
			"code": 5881,
			"nameTH": "*อ.ม่วยต่อ  จ.แม่ฮ่องสอน",
			"nameEN": "Muen Tor",
			"ProvinceId": 46
		},
		{
			"id": 683,
			"code": 6001,
			"nameTH": "เมืองนครสวรรค์",
			"nameEN": "Mueang Nakhon Sawan",
			"ProvinceId": 47
		},
		{
			"id": 684,
			"code": 6002,
			"nameTH": "โกรกพระ",
			"nameEN": "Krok Phra",
			"ProvinceId": 47
		},
		{
			"id": 685,
			"code": 6003,
			"nameTH": "ชุมแสง",
			"nameEN": "Chum Saeng",
			"ProvinceId": 47
		},
		{
			"id": 686,
			"code": 6004,
			"nameTH": "หนองบัว",
			"nameEN": "Nong Bua",
			"ProvinceId": 47
		},
		{
			"id": 687,
			"code": 6005,
			"nameTH": "บรรพตพิสัย",
			"nameEN": "Banphot Phisai",
			"ProvinceId": 47
		},
		{
			"id": 688,
			"code": 6006,
			"nameTH": "เก้าเลี้ยว",
			"nameEN": "Kao Liao",
			"ProvinceId": 47
		},
		{
			"id": 689,
			"code": 6007,
			"nameTH": "ตาคลี",
			"nameEN": "Takhli",
			"ProvinceId": 47
		},
		{
			"id": 690,
			"code": 6008,
			"nameTH": "ท่าตะโก",
			"nameEN": "Takhli",
			"ProvinceId": 47
		},
		{
			"id": 691,
			"code": 6009,
			"nameTH": "ไพศาลี",
			"nameEN": "Phaisali",
			"ProvinceId": 47
		},
		{
			"id": 692,
			"code": 6010,
			"nameTH": "พยุหะคีรี",
			"nameEN": "Phayuha Khiri",
			"ProvinceId": 47
		},
		{
			"id": 693,
			"code": 6011,
			"nameTH": "ลาดยาว",
			"nameEN": "Phayuha Khiri",
			"ProvinceId": 47
		},
		{
			"id": 694,
			"code": 6012,
			"nameTH": "ตากฟ้า",
			"nameEN": "Tak Fa",
			"ProvinceId": 47
		},
		{
			"id": 695,
			"code": 6013,
			"nameTH": "แม่วงก์",
			"nameEN": "Mae Wong",
			"ProvinceId": 47
		},
		{
			"id": 696,
			"code": 6014,
			"nameTH": "แม่เปิน",
			"nameEN": "Mae Poen",
			"ProvinceId": 47
		},
		{
			"id": 697,
			"code": 6015,
			"nameTH": "ชุมตาบง",
			"nameEN": "Chum Ta Bong",
			"ProvinceId": 47
		},
		{
			"id": 698,
			"code": 6051,
			"nameTH": "สาขาตำบลห้วยน้ำหอม*",
			"nameEN": "Huen Nam Hom",
			"ProvinceId": 47
		},
		{
			"id": 699,
			"code": 6052,
			"nameTH": "กิ่งอำเภอชุมตาบง (สาขาตำบลชุมตาบง)*",
			"nameEN": "Chum Ta Bong",
			"ProvinceId": 47
		},
		{
			"id": 700,
			"code": 6053,
			"nameTH": "แม่วงก์ (สาขาตำบลแม่เล่ย์)*",
			"nameEN": "Mea Ley",
			"ProvinceId": 47
		},
		{
			"id": 701,
			"code": 6101,
			"nameTH": "เมืองอุทัยธานี",
			"nameEN": "Mueang Uthai Thani",
			"ProvinceId": 48
		},
		{
			"id": 702,
			"code": 6102,
			"nameTH": "ทัพทัน",
			"nameEN": "Thap Than",
			"ProvinceId": 48
		},
		{
			"id": 703,
			"code": 6103,
			"nameTH": "สว่างอารมณ์",
			"nameEN": "Sawang Arom",
			"ProvinceId": 48
		},
		{
			"id": 704,
			"code": 6104,
			"nameTH": "หนองฉาง",
			"nameEN": "Nong Chang",
			"ProvinceId": 48
		},
		{
			"id": 705,
			"code": 6105,
			"nameTH": "หนองขาหย่าง",
			"nameEN": "Nong Khayang",
			"ProvinceId": 48
		},
		{
			"id": 706,
			"code": 6106,
			"nameTH": "บ้านไร่",
			"nameEN": "Ban Rai",
			"ProvinceId": 48
		},
		{
			"id": 707,
			"code": 6107,
			"nameTH": "ลานสัก",
			"nameEN": "Lan Sak",
			"ProvinceId": 48
		},
		{
			"id": 708,
			"code": 6108,
			"nameTH": "ห้วยคต",
			"nameEN": "Huai Khot",
			"ProvinceId": 48
		},
		{
			"id": 709,
			"code": 6201,
			"nameTH": "เมืองกำแพงเพชร",
			"nameEN": "Mueang Kamphaeng Phet",
			"ProvinceId": 49
		},
		{
			"id": 710,
			"code": 6202,
			"nameTH": "ไทรงาม",
			"nameEN": "Sai Ngam",
			"ProvinceId": 49
		},
		{
			"id": 711,
			"code": 6203,
			"nameTH": "คลองลาน",
			"nameEN": "Khlong Lan",
			"ProvinceId": 49
		},
		{
			"id": 712,
			"code": 6204,
			"nameTH": "ขาณุวรลักษบุรี",
			"nameEN": "Khanu Woralaksaburi",
			"ProvinceId": 49
		},
		{
			"id": 713,
			"code": 6205,
			"nameTH": "คลองขลุง",
			"nameEN": "Khlong Khlung",
			"ProvinceId": 49
		},
		{
			"id": 714,
			"code": 6206,
			"nameTH": "พรานกระต่าย",
			"nameEN": "Phran Kratai",
			"ProvinceId": 49
		},
		{
			"id": 715,
			"code": 6207,
			"nameTH": "ลานกระบือ",
			"nameEN": "Lan Krabue",
			"ProvinceId": 49
		},
		{
			"id": 716,
			"code": 6208,
			"nameTH": "ทรายทองวัฒนา",
			"nameEN": "Sai Thong Watthana",
			"ProvinceId": 49
		},
		{
			"id": 717,
			"code": 6209,
			"nameTH": "ปางศิลาทอง",
			"nameEN": "Pang Sila Thong",
			"ProvinceId": 49
		},
		{
			"id": 718,
			"code": 6210,
			"nameTH": "บึงสามัคคี",
			"nameEN": "Bueng Samakkhi",
			"ProvinceId": 49
		},
		{
			"id": 719,
			"code": 6211,
			"nameTH": "โกสัมพีนคร",
			"nameEN": "Kosamphi Nakhon",
			"ProvinceId": 49
		},
		{
			"id": 720,
			"code": 6301,
			"nameTH": "เมืองตาก",
			"nameEN": "Mueang Tak",
			"ProvinceId": 50
		},
		{
			"id": 721,
			"code": 6302,
			"nameTH": "บ้านตาก",
			"nameEN": "Ban Tak",
			"ProvinceId": 50
		},
		{
			"id": 722,
			"code": 6303,
			"nameTH": "สามเงา",
			"nameEN": "Sam Ngao",
			"ProvinceId": 50
		},
		{
			"id": 723,
			"code": 6304,
			"nameTH": "แม่ระมาด",
			"nameEN": "Mae Ramat",
			"ProvinceId": 50
		},
		{
			"id": 724,
			"code": 6305,
			"nameTH": "ท่าสองยาง",
			"nameEN": "Tha Song Yang",
			"ProvinceId": 50
		},
		{
			"id": 725,
			"code": 6306,
			"nameTH": "แม่สอด",
			"nameEN": "Mae Sot",
			"ProvinceId": 50
		},
		{
			"id": 726,
			"code": 6307,
			"nameTH": "พบพระ",
			"nameEN": "Phop Phra",
			"ProvinceId": 50
		},
		{
			"id": 727,
			"code": 6308,
			"nameTH": "อุ้มผาง",
			"nameEN": "Umphang",
			"ProvinceId": 50
		},
		{
			"id": 728,
			"code": 6309,
			"nameTH": "วังเจ้า",
			"nameEN": "Wang Chao",
			"ProvinceId": 50
		},
		{
			"id": 729,
			"code": 6381,
			"nameTH": "*กิ่ง อ.ท่าปุย  จ.ตาก",
			"nameEN": "*King Ta Pui",
			"ProvinceId": 50
		},
		{
			"id": 730,
			"code": 6401,
			"nameTH": "เมืองสุโขทัย",
			"nameEN": "Mueang Sukhothai",
			"ProvinceId": 51
		},
		{
			"id": 731,
			"code": 6402,
			"nameTH": "บ้านด่านลานหอย",
			"nameEN": "Ban Dan Lan Hoi",
			"ProvinceId": 51
		},
		{
			"id": 732,
			"code": 6403,
			"nameTH": "คีรีมาศ",
			"nameEN": "Khiri Mat",
			"ProvinceId": 51
		},
		{
			"id": 733,
			"code": 6404,
			"nameTH": "กงไกรลาศ",
			"nameEN": "Kong Krailat",
			"ProvinceId": 51
		},
		{
			"id": 734,
			"code": 6405,
			"nameTH": "ศรีสัชนาลัย",
			"nameEN": "Si Satchanalai",
			"ProvinceId": 51
		},
		{
			"id": 735,
			"code": 6406,
			"nameTH": "ศรีสำโรง",
			"nameEN": "Si Samrong",
			"ProvinceId": 51
		},
		{
			"id": 736,
			"code": 6407,
			"nameTH": "สวรรคโลก",
			"nameEN": "Sawankhalok",
			"ProvinceId": 51
		},
		{
			"id": 737,
			"code": 6408,
			"nameTH": "ศรีนคร",
			"nameEN": "Si Nakhon",
			"ProvinceId": 51
		},
		{
			"id": 738,
			"code": 6409,
			"nameTH": "ทุ่งเสลี่ยม",
			"nameEN": "Thung Saliam",
			"ProvinceId": 51
		},
		{
			"id": 739,
			"code": 6501,
			"nameTH": "เมืองพิษณุโลก",
			"nameEN": "Mueang Phitsanulok",
			"ProvinceId": 52
		},
		{
			"id": 740,
			"code": 6502,
			"nameTH": "นครไทย",
			"nameEN": "Nakhon Thai",
			"ProvinceId": 52
		},
		{
			"id": 741,
			"code": 6503,
			"nameTH": "ชาติตระการ",
			"nameEN": "Chat Trakan",
			"ProvinceId": 52
		},
		{
			"id": 742,
			"code": 6504,
			"nameTH": "บางระกำ",
			"nameEN": "Bang Rakam",
			"ProvinceId": 52
		},
		{
			"id": 743,
			"code": 6505,
			"nameTH": "บางกระทุ่ม",
			"nameEN": "Bang Krathum",
			"ProvinceId": 52
		},
		{
			"id": 744,
			"code": 6506,
			"nameTH": "พรหมพิราม",
			"nameEN": "Phrom Phiram",
			"ProvinceId": 52
		},
		{
			"id": 745,
			"code": 6507,
			"nameTH": "วัดโบสถ์",
			"nameEN": "Wat Bot",
			"ProvinceId": 52
		},
		{
			"id": 746,
			"code": 6508,
			"nameTH": "วังทอง",
			"nameEN": "Wang Thong",
			"ProvinceId": 52
		},
		{
			"id": 747,
			"code": 6509,
			"nameTH": "เนินมะปราง",
			"nameEN": "Noen Maprang",
			"ProvinceId": 52
		},
		{
			"id": 748,
			"code": 6601,
			"nameTH": "เมืองพิจิตร",
			"nameEN": "Mueang Phichit",
			"ProvinceId": 53
		},
		{
			"id": 749,
			"code": 6602,
			"nameTH": "วังทรายพูน",
			"nameEN": "Wang Sai Phun",
			"ProvinceId": 53
		},
		{
			"id": 750,
			"code": 6603,
			"nameTH": "โพธิ์ประทับช้าง",
			"nameEN": "Pho Prathap Chang",
			"ProvinceId": 53
		},
		{
			"id": 751,
			"code": 6604,
			"nameTH": "ตะพานหิน",
			"nameEN": "Taphan Hin",
			"ProvinceId": 53
		},
		{
			"id": 752,
			"code": 6605,
			"nameTH": "บางมูลนาก",
			"nameEN": "Bang Mun Nak",
			"ProvinceId": 53
		},
		{
			"id": 753,
			"code": 6606,
			"nameTH": "โพทะเล",
			"nameEN": "Pho Thale",
			"ProvinceId": 53
		},
		{
			"id": 754,
			"code": 6607,
			"nameTH": "สามง่าม",
			"nameEN": "Sam Ngam",
			"ProvinceId": 53
		},
		{
			"id": 755,
			"code": 6608,
			"nameTH": "ทับคล้อ",
			"nameEN": "Tap Khlo",
			"ProvinceId": 53
		},
		{
			"id": 756,
			"code": 6609,
			"nameTH": "สากเหล็ก",
			"nameEN": "Sak Lek",
			"ProvinceId": 53
		},
		{
			"id": 757,
			"code": 6610,
			"nameTH": "บึงนาราง",
			"nameEN": "Bueng Na Rang",
			"ProvinceId": 53
		},
		{
			"id": 758,
			"code": 6611,
			"nameTH": "ดงเจริญ",
			"nameEN": "Dong Charoen",
			"ProvinceId": 53
		},
		{
			"id": 759,
			"code": 6612,
			"nameTH": "วชิรบารมี",
			"nameEN": "Wachirabarami",
			"ProvinceId": 53
		},
		{
			"id": 760,
			"code": 6701,
			"nameTH": "เมืองเพชรบูรณ์",
			"nameEN": "Mueang Phetchabun",
			"ProvinceId": 54
		},
		{
			"id": 761,
			"code": 6702,
			"nameTH": "ชนแดน",
			"nameEN": "Chon Daen",
			"ProvinceId": 54
		},
		{
			"id": 762,
			"code": 6703,
			"nameTH": "หล่มสัก",
			"nameEN": "Lom Sak",
			"ProvinceId": 54
		},
		{
			"id": 763,
			"code": 6704,
			"nameTH": "หล่มเก่า",
			"nameEN": "Lom Kao",
			"ProvinceId": 54
		},
		{
			"id": 764,
			"code": 6705,
			"nameTH": "วิเชียรบุรี",
			"nameEN": "Wichian Buri",
			"ProvinceId": 54
		},
		{
			"id": 765,
			"code": 6706,
			"nameTH": "ศรีเทพ",
			"nameEN": "Si Thep",
			"ProvinceId": 54
		},
		{
			"id": 766,
			"code": 6707,
			"nameTH": "หนองไผ่",
			"nameEN": "Nong Phai",
			"ProvinceId": 54
		},
		{
			"id": 767,
			"code": 6708,
			"nameTH": "บึงสามพัน",
			"nameEN": "Bueng Sam Phan",
			"ProvinceId": 54
		},
		{
			"id": 768,
			"code": 6709,
			"nameTH": "น้ำหนาว",
			"nameEN": "Nam Nao",
			"ProvinceId": 54
		},
		{
			"id": 769,
			"code": 6710,
			"nameTH": "วังโป่ง",
			"nameEN": "Wang Pong",
			"ProvinceId": 54
		},
		{
			"id": 770,
			"code": 6711,
			"nameTH": "เขาค้อ",
			"nameEN": "Khao Kho",
			"ProvinceId": 54
		},
		{
			"id": 771,
			"code": 7001,
			"nameTH": "เมืองราชบุรี",
			"nameEN": "Mueang Ratchaburi",
			"ProvinceId": 55
		},
		{
			"id": 772,
			"code": 7002,
			"nameTH": "จอมบึง",
			"nameEN": "Chom Bueng",
			"ProvinceId": 55
		},
		{
			"id": 773,
			"code": 7003,
			"nameTH": "สวนผึ้ง",
			"nameEN": "Suan Phueng",
			"ProvinceId": 55
		},
		{
			"id": 774,
			"code": 7004,
			"nameTH": "ดำเนินสะดวก",
			"nameEN": "Damnoen Saduak",
			"ProvinceId": 55
		},
		{
			"id": 775,
			"code": 7005,
			"nameTH": "บ้านโป่ง",
			"nameEN": "Ban Pong",
			"ProvinceId": 55
		},
		{
			"id": 776,
			"code": 7006,
			"nameTH": "บางแพ",
			"nameEN": "Bang Phae",
			"ProvinceId": 55
		},
		{
			"id": 777,
			"code": 7007,
			"nameTH": "โพธาราม",
			"nameEN": "Photharam",
			"ProvinceId": 55
		},
		{
			"id": 778,
			"code": 7008,
			"nameTH": "ปากท่อ",
			"nameEN": "Pak Tho",
			"ProvinceId": 55
		},
		{
			"id": 779,
			"code": 7009,
			"nameTH": "วัดเพลง",
			"nameEN": "Wat Phleng",
			"ProvinceId": 55
		},
		{
			"id": 780,
			"code": 7010,
			"nameTH": "บ้านคา",
			"nameEN": "Ban Kha",
			"ProvinceId": 55
		},
		{
			"id": 781,
			"code": 7074,
			"nameTH": "ท้องถิ่นเทศบาลตำบลบ้านฆ้อง",
			"nameEN": "Tet Saban Ban Kong",
			"ProvinceId": 55
		},
		{
			"id": 782,
			"code": 7101,
			"nameTH": "เมืองกาญจนบุรี",
			"nameEN": "Mueang Kanchanaburi",
			"ProvinceId": 56
		},
		{
			"id": 783,
			"code": 7102,
			"nameTH": "ไทรโยค",
			"nameEN": "Sai Yok",
			"ProvinceId": 56
		},
		{
			"id": 784,
			"code": 7103,
			"nameTH": "บ่อพลอย",
			"nameEN": "Bo Phloi",
			"ProvinceId": 56
		},
		{
			"id": 785,
			"code": 7104,
			"nameTH": "ศรีสวัสดิ์",
			"nameEN": "Si Sawat",
			"ProvinceId": 56
		},
		{
			"id": 786,
			"code": 7105,
			"nameTH": "ท่ามะกา",
			"nameEN": "Tha Maka",
			"ProvinceId": 56
		},
		{
			"id": 787,
			"code": 7106,
			"nameTH": "ท่าม่วง",
			"nameEN": "Tha Muang",
			"ProvinceId": 56
		},
		{
			"id": 788,
			"code": 7107,
			"nameTH": "ทองผาภูมิ",
			"nameEN": "Pha Phum",
			"ProvinceId": 56
		},
		{
			"id": 789,
			"code": 7108,
			"nameTH": "สังขละบุรี",
			"nameEN": "Sangkhla Buri",
			"ProvinceId": 56
		},
		{
			"id": 790,
			"code": 7109,
			"nameTH": "พนมทวน",
			"nameEN": "Phanom Thuan",
			"ProvinceId": 56
		},
		{
			"id": 791,
			"code": 7110,
			"nameTH": "เลาขวัญ",
			"nameEN": "Lao Khwan",
			"ProvinceId": 56
		},
		{
			"id": 792,
			"code": 7111,
			"nameTH": "ด่านมะขามเตี้ย",
			"nameEN": "Dan Makham Tia",
			"ProvinceId": 56
		},
		{
			"id": 793,
			"code": 7112,
			"nameTH": "หนองปรือ",
			"nameEN": "Nong Prue",
			"ProvinceId": 56
		},
		{
			"id": 794,
			"code": 7113,
			"nameTH": "ห้วยกระเจา",
			"nameEN": "Huai Krachao",
			"ProvinceId": 56
		},
		{
			"id": 795,
			"code": 7151,
			"nameTH": "สาขาตำบลท่ากระดาน*",
			"nameEN": "Tha Kra Dan",
			"ProvinceId": 56
		},
		{
			"id": 796,
			"code": 7181,
			"nameTH": "*บ้านทวน  จ.กาญจนบุรี",
			"nameEN": "*Ban Tuan",
			"ProvinceId": 56
		},
		{
			"id": 797,
			"code": 7201,
			"nameTH": "เมืองสุพรรณบุรี",
			"nameEN": "Mueang Suphan Buri",
			"ProvinceId": 57
		},
		{
			"id": 798,
			"code": 7202,
			"nameTH": "เดิมบางนางบวช",
			"nameEN": "Doem Bang Nang Buat",
			"ProvinceId": 57
		},
		{
			"id": 799,
			"code": 7203,
			"nameTH": "ด่านช้าง",
			"nameEN": "Dan Chang",
			"ProvinceId": 57
		},
		{
			"id": 800,
			"code": 7204,
			"nameTH": "บางปลาม้า",
			"nameEN": "Bang Pla Ma",
			"ProvinceId": 57
		},
		{
			"id": 801,
			"code": 7205,
			"nameTH": "ศรีประจันต์",
			"nameEN": "Si Prachan",
			"ProvinceId": 57
		},
		{
			"id": 802,
			"code": 7206,
			"nameTH": "ดอนเจดีย์",
			"nameEN": "Don Chedi",
			"ProvinceId": 57
		},
		{
			"id": 803,
			"code": 7207,
			"nameTH": "สองพี่น้อง",
			"nameEN": "Song Phi Nong",
			"ProvinceId": 57
		},
		{
			"id": 804,
			"code": 7208,
			"nameTH": "สามชุก",
			"nameEN": "Sam Chuk",
			"ProvinceId": 57
		},
		{
			"id": 805,
			"code": 7209,
			"nameTH": "อู่ทอง",
			"nameEN": "U Thong",
			"ProvinceId": 57
		},
		{
			"id": 806,
			"code": 7210,
			"nameTH": "หนองหญ้าไซ",
			"nameEN": "Nong Ya Sai",
			"ProvinceId": 57
		},
		{
			"id": 807,
			"code": 7301,
			"nameTH": "เมืองนครปฐม",
			"nameEN": "Mueang Nakhon Pathom",
			"ProvinceId": 58
		},
		{
			"id": 808,
			"code": 7302,
			"nameTH": "กำแพงแสน",
			"nameEN": "Kamphaeng Saen",
			"ProvinceId": 58
		},
		{
			"id": 809,
			"code": 7303,
			"nameTH": "นครชัยศรี",
			"nameEN": "Nakhon Chai Si",
			"ProvinceId": 58
		},
		{
			"id": 810,
			"code": 7304,
			"nameTH": "ดอนตูม",
			"nameEN": "Don Tum",
			"ProvinceId": 58
		},
		{
			"id": 811,
			"code": 7305,
			"nameTH": "บางเลน",
			"nameEN": "Bang Len",
			"ProvinceId": 58
		},
		{
			"id": 812,
			"code": 7306,
			"nameTH": "สามพราน",
			"nameEN": "Sam Phran",
			"ProvinceId": 58
		},
		{
			"id": 813,
			"code": 7307,
			"nameTH": "พุทธมณฑล",
			"nameEN": "Phutthamonthon",
			"ProvinceId": 58
		},
		{
			"id": 814,
			"code": 7401,
			"nameTH": "เมืองสมุทรสาคร",
			"nameEN": "Mueang Samut Sakhon",
			"ProvinceId": 59
		},
		{
			"id": 815,
			"code": 7402,
			"nameTH": "กระทุ่มแบน",
			"nameEN": "Krathum Baen",
			"ProvinceId": 59
		},
		{
			"id": 816,
			"code": 7403,
			"nameTH": "บ้านแพ้ว",
			"nameEN": "Ban Phaeo",
			"ProvinceId": 59
		},
		{
			"id": 817,
			"code": 7501,
			"nameTH": "เมืองสมุทรสงคราม",
			"nameEN": "Mueang Samut Songkhram",
			"ProvinceId": 60
		},
		{
			"id": 818,
			"code": 7502,
			"nameTH": "บางคนที",
			"nameEN": "Bang Khonthi",
			"ProvinceId": 60
		},
		{
			"id": 819,
			"code": 7503,
			"nameTH": "อัมพวา",
			"nameEN": "Amphawa",
			"ProvinceId": 60
		},
		{
			"id": 820,
			"code": 7601,
			"nameTH": "เมืองเพชรบุรี",
			"nameEN": "Mueang Phetchaburi",
			"ProvinceId": 61
		},
		{
			"id": 821,
			"code": 7602,
			"nameTH": "เขาย้อย",
			"nameEN": "Khao Yoi",
			"ProvinceId": 61
		},
		{
			"id": 822,
			"code": 7603,
			"nameTH": "หนองหญ้าปล้อง",
			"nameEN": "Nong Ya Plong",
			"ProvinceId": 61
		},
		{
			"id": 823,
			"code": 7604,
			"nameTH": "ชะอำ",
			"nameEN": "Cha-am",
			"ProvinceId": 61
		},
		{
			"id": 824,
			"code": 7605,
			"nameTH": "ท่ายาง",
			"nameEN": "Tha Yang",
			"ProvinceId": 61
		},
		{
			"id": 825,
			"code": 7606,
			"nameTH": "บ้านลาด",
			"nameEN": "Ban Lat",
			"ProvinceId": 61
		},
		{
			"id": 826,
			"code": 7607,
			"nameTH": "บ้านแหลม",
			"nameEN": "Ban Laem",
			"ProvinceId": 61
		},
		{
			"id": 827,
			"code": 7608,
			"nameTH": "แก่งกระจาน",
			"nameEN": "Kaeng Krachan",
			"ProvinceId": 61
		},
		{
			"id": 828,
			"code": 7701,
			"nameTH": "เมืองประจวบคีรีขันธ์",
			"nameEN": "Mueang Prachuap Khiri Khan",
			"ProvinceId": 62
		},
		{
			"id": 829,
			"code": 7702,
			"nameTH": "กุยบุรี",
			"nameEN": "Kui Buri",
			"ProvinceId": 62
		},
		{
			"id": 830,
			"code": 7703,
			"nameTH": "ทับสะแก",
			"nameEN": "Thap Sakae",
			"ProvinceId": 62
		},
		{
			"id": 831,
			"code": 7704,
			"nameTH": "บางสะพาน",
			"nameEN": "Bang Saphan",
			"ProvinceId": 62
		},
		{
			"id": 832,
			"code": 7705,
			"nameTH": "บางสะพานน้อย",
			"nameEN": "Bang Saphan Noi",
			"ProvinceId": 62
		},
		{
			"id": 833,
			"code": 7706,
			"nameTH": "ปราณบุรี",
			"nameEN": "Pran Buri",
			"ProvinceId": 62
		},
		{
			"id": 834,
			"code": 7707,
			"nameTH": "หัวหิน",
			"nameEN": "Hua Hin",
			"ProvinceId": 62
		},
		{
			"id": 835,
			"code": 7708,
			"nameTH": "สามร้อยยอด",
			"nameEN": "Sam Roi Yot",
			"ProvinceId": 62
		},
		{
			"id": 836,
			"code": 8001,
			"nameTH": "เมืองนครศรีธรรมราช",
			"nameEN": "Mueang Nakhon Si Thammarat",
			"ProvinceId": 63
		},
		{
			"id": 837,
			"code": 8002,
			"nameTH": "พรหมคีรี",
			"nameEN": "Phrom Khiri",
			"ProvinceId": 63
		},
		{
			"id": 838,
			"code": 8003,
			"nameTH": "ลานสกา",
			"nameEN": "Lan Saka",
			"ProvinceId": 63
		},
		{
			"id": 839,
			"code": 8004,
			"nameTH": "ฉวาง",
			"nameEN": "Chawang",
			"ProvinceId": 63
		},
		{
			"id": 840,
			"code": 8005,
			"nameTH": "พิปูน",
			"nameEN": "Phipun",
			"ProvinceId": 63
		},
		{
			"id": 841,
			"code": 8006,
			"nameTH": "เชียรใหญ่",
			"nameEN": "Chian Yai",
			"ProvinceId": 63
		},
		{
			"id": 842,
			"code": 8007,
			"nameTH": "ชะอวด",
			"nameEN": "Cha-uat",
			"ProvinceId": 63
		},
		{
			"id": 843,
			"code": 8008,
			"nameTH": "ท่าศาลา",
			"nameEN": "Tha Sala",
			"ProvinceId": 63
		},
		{
			"id": 844,
			"code": 8009,
			"nameTH": "ทุ่งสง",
			"nameEN": "Thung Song",
			"ProvinceId": 63
		},
		{
			"id": 845,
			"code": 8010,
			"nameTH": "นาบอน",
			"nameEN": "Na Bon",
			"ProvinceId": 63
		},
		{
			"id": 846,
			"code": 8011,
			"nameTH": "ทุ่งใหญ่",
			"nameEN": "Thung Yai",
			"ProvinceId": 63
		},
		{
			"id": 847,
			"code": 8012,
			"nameTH": "ปากพนัง",
			"nameEN": "Pak Phanang",
			"ProvinceId": 63
		},
		{
			"id": 848,
			"code": 8013,
			"nameTH": "ร่อนพิบูลย์",
			"nameEN": "Ron Phibun",
			"ProvinceId": 63
		},
		{
			"id": 849,
			"code": 8014,
			"nameTH": "สิชล",
			"nameEN": "Sichon",
			"ProvinceId": 63
		},
		{
			"id": 850,
			"code": 8015,
			"nameTH": "ขนอม",
			"nameEN": "Khanom",
			"ProvinceId": 63
		},
		{
			"id": 851,
			"code": 8016,
			"nameTH": "หัวไทร",
			"nameEN": "Hua Sai",
			"ProvinceId": 63
		},
		{
			"id": 852,
			"code": 8017,
			"nameTH": "บางขัน",
			"nameEN": "Bang Khan",
			"ProvinceId": 63
		},
		{
			"id": 853,
			"code": 8018,
			"nameTH": "ถ้ำพรรณรา",
			"nameEN": "Tham Phannara",
			"ProvinceId": 63
		},
		{
			"id": 854,
			"code": 8019,
			"nameTH": "จุฬาภรณ์",
			"nameEN": "Chulabhorn",
			"ProvinceId": 63
		},
		{
			"id": 855,
			"code": 8020,
			"nameTH": "พระพรหม",
			"nameEN": "Phra Phrom",
			"ProvinceId": 63
		},
		{
			"id": 856,
			"code": 8021,
			"nameTH": "นบพิตำ",
			"nameEN": "Nopphitam",
			"ProvinceId": 63
		},
		{
			"id": 857,
			"code": 8022,
			"nameTH": "ช้างกลาง",
			"nameEN": "Chang Klang",
			"ProvinceId": 63
		},
		{
			"id": 858,
			"code": 8023,
			"nameTH": "เฉลิมพระเกียรติ",
			"nameEN": "Chaloem Phra Kiat",
			"ProvinceId": 63
		},
		{
			"id": 859,
			"code": 8051,
			"nameTH": "เชียรใหญ่ (สาขาตำบลเสือหึง)*",
			"nameEN": "Chian Yai*",
			"ProvinceId": 63
		},
		{
			"id": 860,
			"code": 8052,
			"nameTH": "สาขาตำบลสวนหลวง**",
			"nameEN": "Suan Luang",
			"ProvinceId": 63
		},
		{
			"id": 861,
			"code": 8053,
			"nameTH": "ร่อนพิบูลย์ (สาขาตำบลหินตก)*",
			"nameEN": "Ron Phibun",
			"ProvinceId": 63
		},
		{
			"id": 862,
			"code": 8054,
			"nameTH": "หัวไทร (สาขาตำบลควนชะลิก)*",
			"nameEN": "Hua Sai",
			"ProvinceId": 63
		},
		{
			"id": 863,
			"code": 8055,
			"nameTH": "ทุ่งสง (สาขาตำบลกะปาง)*",
			"nameEN": "Thung Song",
			"ProvinceId": 63
		},
		{
			"id": 864,
			"code": 8101,
			"nameTH": "เมืองกระบี่",
			"nameEN": "Mueang Krabi",
			"ProvinceId": 64
		},
		{
			"id": 865,
			"code": 8102,
			"nameTH": "เขาพนม",
			"nameEN": "Khao Phanom",
			"ProvinceId": 64
		},
		{
			"id": 866,
			"code": 8103,
			"nameTH": "เกาะลันตา",
			"nameEN": "Ko Lanta",
			"ProvinceId": 64
		},
		{
			"id": 867,
			"code": 8104,
			"nameTH": "คลองท่อม",
			"nameEN": "Khlong Thom",
			"ProvinceId": 64
		},
		{
			"id": 868,
			"code": 8105,
			"nameTH": "อ่าวลึก",
			"nameEN": "Ao Luek",
			"ProvinceId": 64
		},
		{
			"id": 869,
			"code": 8106,
			"nameTH": "ปลายพระยา",
			"nameEN": "Plai Phraya",
			"ProvinceId": 64
		},
		{
			"id": 870,
			"code": 8107,
			"nameTH": "ลำทับ",
			"nameEN": "Lam Thap",
			"ProvinceId": 64
		},
		{
			"id": 871,
			"code": 8108,
			"nameTH": "เหนือคลอง",
			"nameEN": "Nuea Khlong",
			"ProvinceId": 64
		},
		{
			"id": 872,
			"code": 8201,
			"nameTH": "เมืองพังงา",
			"nameEN": "Mueang Phang-nga",
			"ProvinceId": 65
		},
		{
			"id": 873,
			"code": 8202,
			"nameTH": "เกาะยาว",
			"nameEN": "Ko Yao",
			"ProvinceId": 65
		},
		{
			"id": 874,
			"code": 8203,
			"nameTH": "กะปง",
			"nameEN": "Kapong",
			"ProvinceId": 65
		},
		{
			"id": 875,
			"code": 8204,
			"nameTH": "ตะกั่วทุ่ง",
			"nameEN": "Takua Thung",
			"ProvinceId": 65
		},
		{
			"id": 876,
			"code": 8205,
			"nameTH": "ตะกั่วป่า",
			"nameEN": "Takua Pa",
			"ProvinceId": 65
		},
		{
			"id": 877,
			"code": 8206,
			"nameTH": "คุระบุรี",
			"nameEN": "Khura Buri",
			"ProvinceId": 65
		},
		{
			"id": 878,
			"code": 8207,
			"nameTH": "ทับปุด",
			"nameEN": "Thap Put",
			"ProvinceId": 65
		},
		{
			"id": 879,
			"code": 8208,
			"nameTH": "ท้ายเหมือง",
			"nameEN": "Thai Mueang",
			"ProvinceId": 65
		},
		{
			"id": 880,
			"code": 8301,
			"nameTH": "เมืองภูเก็ต",
			"nameEN": "Mueang Phuket",
			"ProvinceId": 66
		},
		{
			"id": 881,
			"code": 8302,
			"nameTH": "กะทู้",
			"nameEN": "Kathu",
			"ProvinceId": 66
		},
		{
			"id": 882,
			"code": 8303,
			"nameTH": "ถลาง",
			"nameEN": "Thalang",
			"ProvinceId": 66
		},
		{
			"id": 883,
			"code": 8381,
			"nameTH": "*ทุ่งคา",
			"nameEN": "*Tung Ka",
			"ProvinceId": 66
		},
		{
			"id": 884,
			"code": 8401,
			"nameTH": "เมืองสุราษฎร์ธานี",
			"nameEN": "Mueang Surat Thani",
			"ProvinceId": 67
		},
		{
			"id": 885,
			"code": 8402,
			"nameTH": "กาญจนดิษฐ์",
			"nameEN": "Kanchanadit",
			"ProvinceId": 67
		},
		{
			"id": 886,
			"code": 8403,
			"nameTH": "ดอนสัก",
			"nameEN": "Don Sak",
			"ProvinceId": 67
		},
		{
			"id": 887,
			"code": 8404,
			"nameTH": "เกาะสมุย",
			"nameEN": "Ko Samui",
			"ProvinceId": 67
		},
		{
			"id": 888,
			"code": 8405,
			"nameTH": "เกาะพะงัน",
			"nameEN": "Ko Pha-ngan",
			"ProvinceId": 67
		},
		{
			"id": 889,
			"code": 8406,
			"nameTH": "ไชยา",
			"nameEN": "Chaiya",
			"ProvinceId": 67
		},
		{
			"id": 890,
			"code": 8407,
			"nameTH": "ท่าชนะ",
			"nameEN": "Tha Chana",
			"ProvinceId": 67
		},
		{
			"id": 891,
			"code": 8408,
			"nameTH": "คีรีรัฐนิคม",
			"nameEN": "Khiri Rat Nikhom",
			"ProvinceId": 67
		},
		{
			"id": 892,
			"code": 8409,
			"nameTH": "บ้านตาขุน",
			"nameEN": "Ban Ta Khun",
			"ProvinceId": 67
		},
		{
			"id": 893,
			"code": 8410,
			"nameTH": "พนม",
			"nameEN": "Phanom",
			"ProvinceId": 67
		},
		{
			"id": 894,
			"code": 8411,
			"nameTH": "ท่าฉาง",
			"nameEN": "Tha Chang",
			"ProvinceId": 67
		},
		{
			"id": 895,
			"code": 8412,
			"nameTH": "บ้านนาสาร",
			"nameEN": "Ban Na San",
			"ProvinceId": 67
		},
		{
			"id": 896,
			"code": 8413,
			"nameTH": "บ้านนาเดิม",
			"nameEN": "Ban Na Doem",
			"ProvinceId": 67
		},
		{
			"id": 897,
			"code": 8414,
			"nameTH": "เคียนซา",
			"nameEN": "Khian Sa",
			"ProvinceId": 67
		},
		{
			"id": 898,
			"code": 8415,
			"nameTH": "เวียงสระ",
			"nameEN": "Wiang Sa",
			"ProvinceId": 67
		},
		{
			"id": 899,
			"code": 8416,
			"nameTH": "พระแสง",
			"nameEN": "Phrasaeng",
			"ProvinceId": 67
		},
		{
			"id": 900,
			"code": 8417,
			"nameTH": "พุนพิน",
			"nameEN": "Phunphin",
			"ProvinceId": 67
		},
		{
			"id": 901,
			"code": 8418,
			"nameTH": "ชัยบุรี",
			"nameEN": "Chai Buri",
			"ProvinceId": 67
		},
		{
			"id": 902,
			"code": 8419,
			"nameTH": "วิภาวดี",
			"nameEN": "Vibhavadi",
			"ProvinceId": 67
		},
		{
			"id": 903,
			"code": 8451,
			"nameTH": "เกาะพงัน (สาขาตำบลเกาะเต่า)*",
			"nameEN": "Ko Pha-ngan",
			"ProvinceId": 67
		},
		{
			"id": 904,
			"code": 8481,
			"nameTH": "*อ.บ้านดอน  จ.สุราษฎร์ธานี",
			"nameEN": "*Ban Don",
			"ProvinceId": 67
		},
		{
			"id": 905,
			"code": 8501,
			"nameTH": "เมืองระนอง",
			"nameEN": "Mueang Ranong",
			"ProvinceId": 68
		},
		{
			"id": 906,
			"code": 8502,
			"nameTH": "ละอุ่น",
			"nameEN": "La-un",
			"ProvinceId": 68
		},
		{
			"id": 907,
			"code": 8503,
			"nameTH": "กะเปอร์",
			"nameEN": "Kapoe",
			"ProvinceId": 68
		},
		{
			"id": 908,
			"code": 8504,
			"nameTH": "กระบุรี",
			"nameEN": "Kra Buri",
			"ProvinceId": 68
		},
		{
			"id": 909,
			"code": 8505,
			"nameTH": "สุขสำราญ",
			"nameEN": "Suk Samran",
			"ProvinceId": 68
		},
		{
			"id": 910,
			"code": 8601,
			"nameTH": "เมืองชุมพร",
			"nameEN": "Mueang Chumphon",
			"ProvinceId": 69
		},
		{
			"id": 911,
			"code": 8602,
			"nameTH": "ท่าแซะ",
			"nameEN": "Tha Sae",
			"ProvinceId": 69
		},
		{
			"id": 912,
			"code": 8603,
			"nameTH": "ปะทิว",
			"nameEN": "Pathio",
			"ProvinceId": 69
		},
		{
			"id": 913,
			"code": 8604,
			"nameTH": "หลังสวน",
			"nameEN": "Lang Suan",
			"ProvinceId": 69
		},
		{
			"id": 914,
			"code": 8605,
			"nameTH": "ละแม",
			"nameEN": "Lamae",
			"ProvinceId": 69
		},
		{
			"id": 915,
			"code": 8606,
			"nameTH": "พะโต๊ะ",
			"nameEN": "Phato",
			"ProvinceId": 69
		},
		{
			"id": 916,
			"code": 8607,
			"nameTH": "สวี",
			"nameEN": "Sawi",
			"ProvinceId": 69
		},
		{
			"id": 917,
			"code": 8608,
			"nameTH": "ทุ่งตะโก",
			"nameEN": "Thung Tako",
			"ProvinceId": 69
		},
		{
			"id": 918,
			"code": 9001,
			"nameTH": "เมืองสงขลา",
			"nameEN": "Mueang Songkhla",
			"ProvinceId": 70
		},
		{
			"id": 919,
			"code": 9002,
			"nameTH": "สทิงพระ",
			"nameEN": "Sathing Phra",
			"ProvinceId": 70
		},
		{
			"id": 920,
			"code": 9003,
			"nameTH": "จะนะ",
			"nameEN": "Chana",
			"ProvinceId": 70
		},
		{
			"id": 921,
			"code": 9004,
			"nameTH": "นาทวี",
			"nameEN": "Na Thawi",
			"ProvinceId": 70
		},
		{
			"id": 922,
			"code": 9005,
			"nameTH": "เทพา",
			"nameEN": "Thepha",
			"ProvinceId": 70
		},
		{
			"id": 923,
			"code": 9006,
			"nameTH": "สะบ้าย้อย",
			"nameEN": "Saba Yoi",
			"ProvinceId": 70
		},
		{
			"id": 924,
			"code": 9007,
			"nameTH": "ระโนด",
			"nameEN": "Ranot",
			"ProvinceId": 70
		},
		{
			"id": 925,
			"code": 9008,
			"nameTH": "กระแสสินธุ์",
			"nameEN": "Krasae Sin",
			"ProvinceId": 70
		},
		{
			"id": 926,
			"code": 9009,
			"nameTH": "รัตภูมิ",
			"nameEN": "Rattaphum",
			"ProvinceId": 70
		},
		{
			"id": 927,
			"code": 9010,
			"nameTH": "สะเดา",
			"nameEN": "Sadao",
			"ProvinceId": 70
		},
		{
			"id": 928,
			"code": 9011,
			"nameTH": "หาดใหญ่",
			"nameEN": "Hat Yai",
			"ProvinceId": 70
		},
		{
			"id": 929,
			"code": 9012,
			"nameTH": "นาหม่อม",
			"nameEN": "Na Mom",
			"ProvinceId": 70
		},
		{
			"id": 930,
			"code": 9013,
			"nameTH": "ควนเนียง",
			"nameEN": "Khuan Niang",
			"ProvinceId": 70
		},
		{
			"id": 931,
			"code": 9014,
			"nameTH": "บางกล่ำ",
			"nameEN": "Bang Klam",
			"ProvinceId": 70
		},
		{
			"id": 932,
			"code": 9015,
			"nameTH": "สิงหนคร",
			"nameEN": "Singhanakhon",
			"ProvinceId": 70
		},
		{
			"id": 933,
			"code": 9016,
			"nameTH": "คลองหอยโข่ง",
			"nameEN": "Khlong Hoi Khong",
			"ProvinceId": 70
		},
		{
			"id": 934,
			"code": 9077,
			"nameTH": "ท้องถิ่นเทศบาลตำบลสำนักขาม",
			"nameEN": "Sum Nung Kam",
			"ProvinceId": 70
		},
		{
			"id": 935,
			"code": 9096,
			"nameTH": "เทศบาลตำบลบ้านพรุ*",
			"nameEN": "Ban Pru*",
			"ProvinceId": 70
		},
		{
			"id": 936,
			"code": 9101,
			"nameTH": "เมืองสตูล",
			"nameEN": "Mueang Satun",
			"ProvinceId": 71
		},
		{
			"id": 937,
			"code": 9102,
			"nameTH": "ควนโดน",
			"nameEN": "Khuan Don",
			"ProvinceId": 71
		},
		{
			"id": 938,
			"code": 9103,
			"nameTH": "ควนกาหลง",
			"nameEN": "Khuan Kalong",
			"ProvinceId": 71
		},
		{
			"id": 939,
			"code": 9104,
			"nameTH": "ท่าแพ",
			"nameEN": "Tha Phae",
			"ProvinceId": 71
		},
		{
			"id": 940,
			"code": 9105,
			"nameTH": "ละงู",
			"nameEN": "La-ngu",
			"ProvinceId": 71
		},
		{
			"id": 941,
			"code": 9106,
			"nameTH": "ทุ่งหว้า",
			"nameEN": "Thung Wa",
			"ProvinceId": 71
		},
		{
			"id": 942,
			"code": 9107,
			"nameTH": "มะนัง",
			"nameEN": "Manang",
			"ProvinceId": 71
		},
		{
			"id": 943,
			"code": 9201,
			"nameTH": "เมืองตรัง",
			"nameEN": "Mueang Trang",
			"ProvinceId": 72
		},
		{
			"id": 944,
			"code": 9202,
			"nameTH": "กันตัง",
			"nameEN": "Kantang",
			"ProvinceId": 72
		},
		{
			"id": 945,
			"code": 9203,
			"nameTH": "ย่านตาขาว",
			"nameEN": "Yan Ta Khao",
			"ProvinceId": 72
		},
		{
			"id": 946,
			"code": 9204,
			"nameTH": "ปะเหลียน",
			"nameEN": "Palian",
			"ProvinceId": 72
		},
		{
			"id": 947,
			"code": 9205,
			"nameTH": "สิเกา",
			"nameEN": "Sikao",
			"ProvinceId": 72
		},
		{
			"id": 948,
			"code": 9206,
			"nameTH": "ห้วยยอด",
			"nameEN": "Huai Yot",
			"ProvinceId": 72
		},
		{
			"id": 949,
			"code": 9207,
			"nameTH": "วังวิเศษ",
			"nameEN": "Wang Wiset",
			"ProvinceId": 72
		},
		{
			"id": 950,
			"code": 9208,
			"nameTH": "นาโยง",
			"nameEN": "Na Yong",
			"ProvinceId": 72
		},
		{
			"id": 951,
			"code": 9209,
			"nameTH": "รัษฎา",
			"nameEN": "Ratsada",
			"ProvinceId": 72
		},
		{
			"id": 952,
			"code": 9210,
			"nameTH": "หาดสำราญ",
			"nameEN": "Hat Samran",
			"ProvinceId": 72
		},
		{
			"id": 953,
			"code": 9251,
			"nameTH": "อำเภอเมืองตรัง(สาขาคลองเต็ง)**",
			"nameEN": "Mueang Trang(Krong Teng)**",
			"ProvinceId": 72
		},
		{
			"id": 954,
			"code": 9301,
			"nameTH": "เมืองพัทลุง",
			"nameEN": "Mueang Phatthalung",
			"ProvinceId": 73
		},
		{
			"id": 955,
			"code": 9302,
			"nameTH": "กงหรา",
			"nameEN": "Kong Ra",
			"ProvinceId": 73
		},
		{
			"id": 956,
			"code": 9303,
			"nameTH": "เขาชัยสน",
			"nameEN": "Khao Chaison",
			"ProvinceId": 73
		},
		{
			"id": 957,
			"code": 9304,
			"nameTH": "ตะโหมด",
			"nameEN": "Tamot",
			"ProvinceId": 73
		},
		{
			"id": 958,
			"code": 9305,
			"nameTH": "ควนขนุน",
			"nameEN": "Khuan Khanun",
			"ProvinceId": 73
		},
		{
			"id": 959,
			"code": 9306,
			"nameTH": "ปากพะยูน",
			"nameEN": "Pak Phayun",
			"ProvinceId": 73
		},
		{
			"id": 960,
			"code": 9307,
			"nameTH": "ศรีบรรพต",
			"nameEN": "Si Banphot",
			"ProvinceId": 73
		},
		{
			"id": 961,
			"code": 9308,
			"nameTH": "ป่าบอน",
			"nameEN": "Pa Bon",
			"ProvinceId": 73
		},
		{
			"id": 962,
			"code": 9309,
			"nameTH": "บางแก้ว",
			"nameEN": "Bang Kaeo",
			"ProvinceId": 73
		},
		{
			"id": 963,
			"code": 9310,
			"nameTH": "ป่าพะยอม",
			"nameEN": "Pa Phayom",
			"ProvinceId": 73
		},
		{
			"id": 964,
			"code": 9311,
			"nameTH": "ศรีนครินทร์",
			"nameEN": "Srinagarindra",
			"ProvinceId": 73
		},
		{
			"id": 965,
			"code": 9401,
			"nameTH": "เมืองปัตตานี",
			"nameEN": "Mueang Pattani",
			"ProvinceId": 74
		},
		{
			"id": 966,
			"code": 9402,
			"nameTH": "โคกโพธิ์",
			"nameEN": "Khok Pho",
			"ProvinceId": 74
		},
		{
			"id": 967,
			"code": 9403,
			"nameTH": "หนองจิก",
			"nameEN": "Nong Chik",
			"ProvinceId": 74
		},
		{
			"id": 968,
			"code": 9404,
			"nameTH": "ปะนาเระ",
			"nameEN": "Panare",
			"ProvinceId": 74
		},
		{
			"id": 969,
			"code": 9405,
			"nameTH": "มายอ",
			"nameEN": "Mayo",
			"ProvinceId": 74
		},
		{
			"id": 970,
			"code": 9406,
			"nameTH": "ทุ่งยางแดง",
			"nameEN": "Thung Yang Daeng",
			"ProvinceId": 74
		},
		{
			"id": 971,
			"code": 9407,
			"nameTH": "สายบุรี",
			"nameEN": "Sai Buri",
			"ProvinceId": 74
		},
		{
			"id": 972,
			"code": 9408,
			"nameTH": "ไม้แก่น",
			"nameEN": "Mai Kaen",
			"ProvinceId": 74
		},
		{
			"id": 973,
			"code": 9409,
			"nameTH": "ยะหริ่ง",
			"nameEN": "Yaring",
			"ProvinceId": 74
		},
		{
			"id": 974,
			"code": 9410,
			"nameTH": "ยะรัง",
			"nameEN": "Yarang",
			"ProvinceId": 74
		},
		{
			"id": 975,
			"code": 9411,
			"nameTH": "กะพ้อ",
			"nameEN": "Kapho",
			"ProvinceId": 74
		},
		{
			"id": 976,
			"code": 9412,
			"nameTH": "แม่ลาน",
			"nameEN": "Mae Lan",
			"ProvinceId": 74
		},
		{
			"id": 977,
			"code": 9501,
			"nameTH": "เมืองยะลา",
			"nameEN": "Mueang Yala",
			"ProvinceId": 75
		},
		{
			"id": 978,
			"code": 9502,
			"nameTH": "เบตง",
			"nameEN": "Betong",
			"ProvinceId": 75
		},
		{
			"id": 979,
			"code": 9503,
			"nameTH": "บันนังสตา",
			"nameEN": "Bannang Sata",
			"ProvinceId": 75
		},
		{
			"id": 980,
			"code": 9504,
			"nameTH": "ธารโต",
			"nameEN": "Than To",
			"ProvinceId": 75
		},
		{
			"id": 981,
			"code": 9505,
			"nameTH": "ยะหา",
			"nameEN": "Yaha",
			"ProvinceId": 75
		},
		{
			"id": 982,
			"code": 9506,
			"nameTH": "รามัน",
			"nameEN": "Raman",
			"ProvinceId": 75
		},
		{
			"id": 983,
			"code": 9507,
			"nameTH": "กาบัง",
			"nameEN": "Kabang",
			"ProvinceId": 75
		},
		{
			"id": 984,
			"code": 9508,
			"nameTH": "กรงปินัง",
			"nameEN": "Krong Pinang",
			"ProvinceId": 75
		},
		{
			"id": 985,
			"code": 9601,
			"nameTH": "เมืองนราธิวาส",
			"nameEN": "Mueang Narathiwat",
			"ProvinceId": 76
		},
		{
			"id": 986,
			"code": 9602,
			"nameTH": "ตากใบ",
			"nameEN": "Tak Bai",
			"ProvinceId": 76
		},
		{
			"id": 987,
			"code": 9603,
			"nameTH": "บาเจาะ",
			"nameEN": "Bacho",
			"ProvinceId": 76
		},
		{
			"id": 988,
			"code": 9604,
			"nameTH": "ยี่งอ",
			"nameEN": "Yi-ngo",
			"ProvinceId": 76
		},
		{
			"id": 989,
			"code": 9605,
			"nameTH": "ระแงะ",
			"nameEN": "Ra-ngae",
			"ProvinceId": 76
		},
		{
			"id": 990,
			"code": 9606,
			"nameTH": "รือเสาะ",
			"nameEN": "Rueso",
			"ProvinceId": 76
		},
		{
			"id": 991,
			"code": 9607,
			"nameTH": "ศรีสาคร",
			"nameEN": "Si Sakhon",
			"ProvinceId": 76
		},
		{
			"id": 992,
			"code": 9608,
			"nameTH": "แว้ง",
			"nameEN": "Waeng",
			"ProvinceId": 76
		},
		{
			"id": 993,
			"code": 9609,
			"nameTH": "สุคิริน",
			"nameEN": "Sukhirin",
			"ProvinceId": 76
		},
		{
			"id": 994,
			"code": 9610,
			"nameTH": "สุไหงโก-ลก",
			"nameEN": "Su-ngai Kolok",
			"ProvinceId": 76
		},
		{
			"id": 995,
			"code": 9611,
			"nameTH": "สุไหงปาดี",
			"nameEN": "Su-ngai Padi",
			"ProvinceId": 76
		},
		{
			"id": 996,
			"code": 9612,
			"nameTH": "จะแนะ",
			"nameEN": "Chanae",
			"ProvinceId": 76
		},
		{
			"id": 997,
			"code": 9613,
			"nameTH": "เจาะไอร้อง",
			"nameEN": "Cho-airong",
			"ProvinceId": 76
		},
		{
			"id": 998,
			"code": 9681,
			"nameTH": "*อ.บางนรา  จ.นราธิวาส",
			"nameEN": "*Bang Nra",
			"ProvinceId": 76
		},
		{
			"id": 999,
			"code": 3801,
			"nameTH": "เมืองบึงกาฬ",
			"nameEN": "Mueang Bueng Kan",
			"ProvinceId": 77
		},
		{
			"id": 1000,
			"code": 3802,
			"nameTH": "เซกา",
			"nameEN": "Seka",
			"ProvinceId": 77
		},
		{
			"id": 1001,
			"code": 3803,
			"nameTH": "โซ่พิสัย",
			"nameEN": "So Phisai",
			"ProvinceId": 77
		},
		{
			"id": 1002,
			"code": 3804,
			"nameTH": "พรเจริญ",
			"nameEN": "Phon Charoen",
			"ProvinceId": 77
		},
		{
			"id": 1003,
			"code": 3805,
			"nameTH": "ศรีวิไล",
			"nameEN": "Si Wilai",
			"ProvinceId": 77
		},
		{
			"id": 1004,
			"code": 3806,
			"nameTH": "บึงโขงหลง",
			"nameEN": "Bueng Khong Long",
			"ProvinceId": 77
		},
		{
			"id": 1005,
			"code": 3807,
			"nameTH": "ปากคาด",
			"nameEN": "Pak Khat",
			"ProvinceId": 77
		},
		{
			"id": 1006,
			"code": 3808,
			"nameTH": "บุ่งคล้า",
			"nameEN": "Bung Khla",
			"ProvinceId": 77
		}
	],
	"error": null
}